{
"type": "FeatureCollection",
"name": "college_locations",
"crs": { "type": "name", "properties": { "name": "urn:ogc:def:crs:OGC:1.3:CRS84" } },
"features": [
{ "type": "Feature", "properties": { "unitid": "109730", "name": "Associated Technical College-San Diego", "district": null, "type": "College / University", "education_site_type": "College / University", "address": "2650 Camino Del Rio North, Ste. 100", "city": "San Diego", "state": "CA", "zip": "92108-1630", "lat": 32.773178, "lon": -117.135196, "tract_geoid": "06073009307", "source": "NCES EDGE / IPEDS Postsecondary School Locations 2024-25" }, "geometry": { "type": "Point", "coordinates": [ -117.135196, 32.773178 ] } },
{ "type": "Feature", "properties": { "unitid": "109934", "name": "Bellus Academy-Chula Vista", "district": null, "type": "College / University", "education_site_type": "College / University", "address": "970 Broadway, Suite 110", "city": "Chula Vista", "state": "CA", "zip": "91911", "lat": 32.614773, "lon": -117.083738, "tract_geoid": "06073013103", "source": "NCES EDGE / IPEDS Postsecondary School Locations 2024-25" }, "geometry": { "type": "Point", "coordinates": [ -117.083738, 32.614773 ] } },
{ "type": "Feature", "properties": { "unitid": "110468", "name": "Alliant International University-San Diego", "district": null, "type": "College / University", "education_site_type": "College / University", "address": "10455 Pomerado Road", "city": "San Diego", "state": "CA", "zip": "92131", "lat": 32.897056, "lon": -117.094398, "tract_geoid": "06073009504", "source": "NCES EDGE / IPEDS Postsecondary School Locations 2024-25" }, "geometry": { "type": "Point", "coordinates": [ -117.094398, 32.897056 ] } },
{ "type": "Feature", "properties": { "unitid": "110680", "name": "University of California-San Diego", "district": null, "type": "College / University", "education_site_type": "College / University", "address": "9500 Gilman Dr", "city": "La Jolla", "state": "CA", "zip": "92093", "lat": 32.877749, "lon": -117.235866, "tract_geoid": "06073008305", "source": "NCES EDGE / IPEDS Postsecondary School Locations 2024-25" }, "geometry": { "type": "Point", "coordinates": [ -117.235866, 32.877749 ] } },
{ "type": "Feature", "properties": { "unitid": "111054", "name": "California Hair Design Academy", "district": null, "type": "College / University", "education_site_type": "College / University", "address": "8011 University Avenue, Suite A-2", "city": "La Mesa", "state": "CA", "zip": "91942-5055", "lat": 32.765221, "lon": -117.024261, "tract_geoid": "06073014601", "source": "NCES EDGE / IPEDS Postsecondary School Locations 2024-25" }, "geometry": { "type": "Point", "coordinates": [ -117.024261, 32.765221 ] } },
{ "type": "Feature", "properties": { "unitid": "111391", "name": "California Western School of Law", "district": null, "type": "College / University", "education_site_type": "College / University", "address": "225 Cedar St", "city": "San Diego", "state": "CA", "zip": "92101-3046", "lat": 32.722192, "lon": -117.162416, "tract_geoid": "06073005601", "source": "NCES EDGE / IPEDS Postsecondary School Locations 2024-25" }, "geometry": { "type": "Point", "coordinates": [ -117.162416, 32.722192 ] } },
{ "type": "Feature", "properties": { "unitid": "111708", "name": "CET-San Diego", "district": null, "type": "College / University", "education_site_type": "College / University", "address": "4153 Market Street", "city": "San Diego", "state": "CA", "zip": "92102", "lat": 32.711302, "lon": -117.105328, "tract_geoid": "06073003403", "source": "NCES EDGE / IPEDS Postsecondary School Locations 2024-25" }, "geometry": { "type": "Point", "coordinates": [ -117.105328, 32.711302 ] } },
{ "type": "Feature", "properties": { "unitid": "112084", "name": "San Diego Christian College", "district": null, "type": "College / University", "education_site_type": "College / University", "address": "280 Riverview Parkway", "city": "Santee", "state": "CA", "zip": "92071", "lat": 32.843454, "lon": -116.978089, "tract_geoid": "06073016615", "source": "NCES EDGE / IPEDS Postsecondary School Locations 2024-25" }, "geometry": { "type": "Point", "coordinates": [ -116.978089, 32.843454 ] } },
{ "type": "Feature", "properties": { "unitid": "113218", "name": "Cuyamaca College", "district": null, "type": "College / University", "education_site_type": "College / University", "address": "900 Rancho San Diego Pky", "city": "El Cajon", "state": "CA", "zip": "92019", "lat": 32.744305, "lon": -116.942854, "tract_geoid": "06073013607", "source": "NCES EDGE / IPEDS Postsecondary School Locations 2024-25" }, "geometry": { "type": "Point", "coordinates": [ -116.942854, 32.744305 ] } },
{ "type": "Feature", "properties": { "unitid": "113582", "name": "Design Institute of San Diego", "district": null, "type": "College / University", "education_site_type": "College / University", "address": "8555 Commerce Ave", "city": "San Diego", "state": "CA", "zip": "92121", "lat": 32.880926, "lon": -117.167374, "tract_geoid": "06073008350", "source": "NCES EDGE / IPEDS Postsecondary School Locations 2024-25" }, "geometry": { "type": "Point", "coordinates": [ -117.167374, 32.880926 ] } },
{ "type": "Feature", "properties": { "unitid": "114734", "name": "Franciscan School of Theology", "district": null, "type": "College / University", "education_site_type": "College / University", "address": "5998 Alcala Park", "city": "San Diego", "state": "CA", "zip": "92110", "lat": 32.770816, "lon": -117.192073, "tract_geoid": "06073009109", "source": "NCES EDGE / IPEDS Postsecondary School Locations 2024-25" }, "geometry": { "type": "Point", "coordinates": [ -117.192073, 32.770816 ] } },
{ "type": "Feature", "properties": { "unitid": "114947", "name": "Gemological Institute of America-Carlsbad", "district": null, "type": "College / University", "education_site_type": "College / University", "address": "5345 Armada Dr", "city": "Carlsbad", "state": "CA", "zip": "92008", "lat": 33.131313, "lon": -117.318765, "tract_geoid": "06073022101", "source": "NCES EDGE / IPEDS Postsecondary School Locations 2024-25" }, "geometry": { "type": "Point", "coordinates": [ -117.318765, 33.131313 ] } },
{ "type": "Feature", "properties": { "unitid": "115287", "name": "Grossmont-Cuyamaca Community College District", "district": null, "type": "College / University", "education_site_type": "College / University", "address": "8800 Grossmont College Dr", "city": "El Cajon", "state": "CA", "zip": "92020-1799", "lat": 32.815246, "lon": -117.006277, "tract_geoid": "06073016619", "source": "NCES EDGE / IPEDS Postsecondary School Locations 2024-25" }, "geometry": { "type": "Point", "coordinates": [ -117.006277, 32.815246 ] } },
{ "type": "Feature", "properties": { "unitid": "115296", "name": "Grossmont College", "district": null, "type": "College / University", "education_site_type": "College / University", "address": "8800 Grossmont College Dr", "city": "El Cajon", "state": "CA", "zip": "92020-1799", "lat": 32.815246, "lon": -117.006277, "tract_geoid": "06073016619", "source": "NCES EDGE / IPEDS Postsecondary School Locations 2024-25" }, "geometry": { "type": "Point", "coordinates": [ -117.006277, 32.815246 ] } },
{ "type": "Feature", "properties": { "unitid": "116563", "name": "Bellus Academy-El Cajon", "district": null, "type": "College / University", "education_site_type": "College / University", "address": "1073 E Main St", "city": "El Cajon", "state": "CA", "zip": "92021", "lat": 32.794072, "lon": -116.94627, "tract_geoid": "06073015706", "source": "NCES EDGE / IPEDS Postsecondary School Locations 2024-25" }, "geometry": { "type": "Point", "coordinates": [ -116.94627, 32.794072 ] } },
{ "type": "Feature", "properties": { "unitid": "117575", "name": "Southern California Seminary", "district": null, "type": "College / University", "education_site_type": "College / University", "address": "2075 E. Madison Avenue", "city": "El Cajon", "state": "CA", "zip": "92019-1108", "lat": 32.799614, "lon": -116.905461, "tract_geoid": "06073015602", "source": "NCES EDGE / IPEDS Postsecondary School Locations 2024-25" }, "geometry": { "type": "Point", "coordinates": [ -116.905461, 32.799614 ] } },
{ "type": "Feature", "properties": { "unitid": "118912", "name": "MiraCosta College", "district": null, "type": "College / University", "education_site_type": "College / University", "address": "One Barnard Drive", "city": "Oceanside", "state": "CA", "zip": "92056-3899", "lat": 33.190483, "lon": -117.302606, "tract_geoid": "06073018517", "source": "NCES EDGE / IPEDS Postsecondary School Locations 2024-25" }, "geometry": { "type": "Point", "coordinates": [ -117.302606, 33.190483 ] } },
{ "type": "Feature", "properties": { "unitid": "11891201", "name": "MiraCosta College - San Elijo Campus", "district": null, "type": "College / University", "education_site_type": "College / University", "address": "3333 Manchester Avenue", "city": "Cardiff", "state": "CA", "zip": "92007-1516", "lat": 33.018082, "lon": -117.258561, "tract_geoid": "06073017406", "source": "NCES EDGE / IPEDS Postsecondary School Locations 2024-25" }, "geometry": { "type": "Point", "coordinates": [ -117.258561, 33.018082 ] } },
{ "type": "Feature", "properties": { "unitid": "119605", "name": "National University", "district": null, "type": "College / University", "education_site_type": "College / University", "address": "9388 Lightwave Ave", "city": "San Diego", "state": "CA", "zip": "92123", "lat": 32.829299, "lon": -117.127296, "tract_geoid": "06073008511", "source": "NCES EDGE / IPEDS Postsecondary School Locations 2024-25" }, "geometry": { "type": "Point", "coordinates": [ -117.127296, 32.829299 ] } },
{ "type": "Feature", "properties": { "unitid": "119775", "name": "Newschool of Architecture and Design", "district": null, "type": "College / University", "education_site_type": "College / University", "address": "1249 F St", "city": "San Diego", "state": "CA", "zip": "92101", "lat": 32.71331, "lon": -117.153305, "tract_geoid": "06073005201", "source": "NCES EDGE / IPEDS Postsecondary School Locations 2024-25" }, "geometry": { "type": "Point", "coordinates": [ -117.153305, 32.71331 ] } },
{ "type": "Feature", "properties": { "unitid": "120661", "name": "Concorde Career College-San Diego", "district": null, "type": "College / University", "education_site_type": "College / University", "address": "4393 Imperial Avenue, Suite 100", "city": "San Diego", "state": "CA", "zip": "92113-1964", "lat": 32.702814, "lon": -117.102845, "tract_geoid": "06073003301", "source": "NCES EDGE / IPEDS Postsecondary School Locations 2024-25" }, "geometry": { "type": "Point", "coordinates": [ -117.102845, 32.702814 ] } },
{ "type": "Feature", "properties": { "unitid": "120971", "name": "Palomar College", "district": null, "type": "College / University", "education_site_type": "College / University", "address": "1140 W. Mission Road", "city": "San Marcos", "state": "CA", "zip": "92069-1487", "lat": 33.149483, "lon": -117.183978, "tract_geoid": "06073020021", "source": "NCES EDGE / IPEDS Postsecondary School Locations 2024-25" }, "geometry": { "type": "Point", "coordinates": [ -117.183978, 33.149483 ] } },
{ "type": "Feature", "properties": { "unitid": "121309", "name": "Point Loma Nazarene University", "district": null, "type": "College / University", "education_site_type": "College / University", "address": "3900 Lomaland Dr", "city": "San Diego", "state": "CA", "zip": "92106-2899", "lat": 32.718391, "lon": -117.250265, "tract_geoid": "06073007200", "source": "NCES EDGE / IPEDS Postsecondary School Locations 2024-25" }, "geometry": { "type": "Point", "coordinates": [ -117.250265, 32.718391 ] } },
{ "type": "Feature", "properties": { "unitid": "122320", "name": "San Diego Community College District-District Office", "district": null, "type": "College / University", "education_site_type": "College / University", "address": "3375 Camino del Rio South", "city": "San Diego", "state": "CA", "zip": "92108", "lat": 32.776275, "lon": -117.120504, "tract_geoid": "06073009307", "source": "NCES EDGE / IPEDS Postsecondary School Locations 2024-25" }, "geometry": { "type": "Point", "coordinates": [ -117.120504, 32.776275 ] } },
{ "type": "Feature", "properties": { "unitid": "122339", "name": "San Diego City College", "district": null, "type": "College / University", "education_site_type": "College / University", "address": "1313 Park Boulevard", "city": "San Diego", "state": "CA", "zip": "92101-4787", "lat": 32.717403, "lon": -117.152733, "tract_geoid": "06073005201", "source": "NCES EDGE / IPEDS Postsecondary School Locations 2024-25" }, "geometry": { "type": "Point", "coordinates": [ -117.152733, 32.717403 ] } },
{ "type": "Feature", "properties": { "unitid": "122375", "name": "San Diego Mesa College", "district": null, "type": "College / University", "education_site_type": "College / University", "address": "7250 Mesa College Dr", "city": "San Diego", "state": "CA", "zip": "92111-4998", "lat": 32.803825, "lon": -117.169165, "tract_geoid": "06073008510", "source": "NCES EDGE / IPEDS Postsecondary School Locations 2024-25" }, "geometry": { "type": "Point", "coordinates": [ -117.169165, 32.803825 ] } },
{ "type": "Feature", "properties": { "unitid": "122384", "name": "San Diego Miramar College", "district": null, "type": "College / University", "education_site_type": "College / University", "address": "10440 Black Mountain Rd", "city": "San Diego", "state": "CA", "zip": "92126-2999", "lat": 32.909757, "lon": -117.120261, "tract_geoid": "06073008359", "source": "NCES EDGE / IPEDS Postsecondary School Locations 2024-25" }, "geometry": { "type": "Point", "coordinates": [ -117.120261, 32.909757 ] } },
{ "type": "Feature", "properties": { "unitid": "122409", "name": "San Diego State University", "district": null, "type": "College / University", "education_site_type": "College / University", "address": "5500 Campanile Dr", "city": "San Diego", "state": "CA", "zip": "92182-0001", "lat": 32.77525, "lon": -117.071228, "tract_geoid": "06073002801", "source": "NCES EDGE / IPEDS Postsecondary School Locations 2024-25" }, "geometry": { "type": "Point", "coordinates": [ -117.071228, 32.77525 ] } },
{ "type": "Feature", "properties": { "unitid": "122436", "name": "University of San Diego", "district": null, "type": "College / University", "education_site_type": "College / University", "address": "5998 Alcala Park", "city": "San Diego", "state": "CA", "zip": "92110-2492", "lat": 32.770816, "lon": -117.192073, "tract_geoid": "06073009109", "source": "NCES EDGE / IPEDS Postsecondary School Locations 2024-25" }, "geometry": { "type": "Point", "coordinates": [ -117.192073, 32.770816 ] } },
{ "type": "Feature", "properties": { "unitid": "123800", "name": "Southwestern College", "district": null, "type": "College / University", "education_site_type": "College / University", "address": "900 Otay Lakes Rd.", "city": "Chula Vista", "state": "CA", "zip": "91910-7299", "lat": 32.640281, "lon": -116.996803, "tract_geoid": "06073013415", "source": "NCES EDGE / IPEDS Postsecondary School Locations 2024-25" }, "geometry": { "type": "Point", "coordinates": [ -116.996803, 32.640281 ] } },
{ "type": "Feature", "properties": { "unitid": "125718", "name": "Westminster Theological Seminary in California", "district": null, "type": "College / University", "education_site_type": "College / University", "address": "1725 Bear Valley Parkway", "city": "Escondido", "state": "CA", "zip": "92027", "lat": 33.121447, "lon": -117.046371, "tract_geoid": "06073020706", "source": "NCES EDGE / IPEDS Postsecondary School Locations 2024-25" }, "geometry": { "type": "Point", "coordinates": [ -117.046371, 33.121447 ] } },
{ "type": "Feature", "properties": { "unitid": "126049", "name": "Thomas Jefferson School of Law", "district": null, "type": "College / University", "education_site_type": "College / University", "address": "701 B Street - Suite 110", "city": "San Diego", "state": "CA", "zip": "92101", "lat": 32.717595, "lon": -117.157862, "tract_geoid": "06073005301", "source": "NCES EDGE / IPEDS Postsecondary School Locations 2024-25" }, "geometry": { "type": "Point", "coordinates": [ -117.157862, 32.717595 ] } },
{ "type": "Feature", "properties": { "unitid": "154022", "name": "Ashford University", "district": null, "type": "College / University", "education_site_type": "College / University", "address": "8620 Spectrum Center Boulevard", "city": "San Diego", "state": "CA", "zip": "92123", "lat": 32.8273, "lon": -117.141961, "tract_geoid": "06073008511", "source": "NCES EDGE / IPEDS Postsecondary School Locations 2024-25" }, "geometry": { "type": "Point", "coordinates": [ -117.141961, 32.8273 ] } },
{ "type": "Feature", "properties": { "unitid": "17706532", "name": "Columbia College - San Diego", "district": null, "type": "College / University", "education_site_type": "College / University", "address": "4025 Tripoli Avenue Building 111", "city": "San Diego", "state": "CA", "zip": "92140-5290", "lat": 32.74263, "lon": -117.192534, "tract_geoid": "06073006300", "source": "NCES EDGE / IPEDS Postsecondary School Locations 2024-25" }, "geometry": { "type": "Point", "coordinates": [ -117.192534, 32.74263 ] } },
{ "type": "Feature", "properties": { "unitid": "365125", "name": "Palomar Institute of Cosmetology", "district": null, "type": "College / University", "education_site_type": "College / University", "address": "355 Via Vera Cruz #3", "city": "San Marcos", "state": "CA", "zip": "92078", "lat": 33.13663, "lon": -117.188351, "tract_geoid": "06073020029", "source": "NCES EDGE / IPEDS Postsecondary School Locations 2024-25" }, "geometry": { "type": "Point", "coordinates": [ -117.188351, 33.13663 ] } },
{ "type": "Feature", "properties": { "unitid": "366711", "name": "California State University-San Marcos", "district": null, "type": "College / University", "education_site_type": "College / University", "address": "333 S Twin Oaks Valley Rd", "city": "San Marcos", "state": "CA", "zip": "92096-0001", "lat": 33.130569, "lon": -117.159013, "tract_geoid": "06073020310", "source": "NCES EDGE / IPEDS Postsecondary School Locations 2024-25" }, "geometry": { "type": "Point", "coordinates": [ -117.159013, 33.130569 ] } },
{ "type": "Feature", "properties": { "unitid": "367954", "name": "University of St. Augustine for Health Sciences", "district": null, "type": "College / University", "education_site_type": "College / University", "address": "700 Windy Point Drive", "city": "San Marcos", "state": "CA", "zip": "92069", "lat": 33.151849, "lon": -117.165964, "tract_geoid": "06073020038", "source": "NCES EDGE / IPEDS Postsecondary School Locations 2024-25" }, "geometry": { "type": "Point", "coordinates": [ -117.165964, 33.151849 ] } },
{ "type": "Feature", "properties": { "unitid": "377722", "name": "Bellus Academy-Poway", "district": null, "type": "College / University", "education_site_type": "College / University", "address": "13266 Poway Rd", "city": "Poway", "state": "CA", "zip": "92064", "lat": 32.957184, "lon": -117.042531, "tract_geoid": "06073017041", "source": "NCES EDGE / IPEDS Postsecondary School Locations 2024-25" }, "geometry": { "type": "Point", "coordinates": [ -117.042531, 32.957184 ] } },
{ "type": "Feature", "properties": { "unitid": "378576", "name": "Pacific College of Health and Science", "district": null, "type": "College / University", "education_site_type": "College / University", "address": "7445 Mission Valley Rd Ste 105", "city": "San Diego", "state": "CA", "zip": "92108-4407", "lat": 32.778391, "lon": -117.16073, "tract_geoid": "06073008702", "source": "NCES EDGE / IPEDS Postsecondary School Locations 2024-25" }, "geometry": { "type": "Point", "coordinates": [ -117.16073, 32.778391 ] } },
{ "type": "Feature", "properties": { "unitid": "434140", "name": "Pima Medical Institute-Chula Vista", "district": null, "type": "College / University", "education_site_type": "College / University", "address": "780 Bay Blvd, Suite101", "city": "Chula Vista", "state": "CA", "zip": "91910", "lat": 32.619858, "lon": -117.093388, "tract_geoid": "06073012600", "source": "NCES EDGE / IPEDS Postsecondary School Locations 2024-25" }, "geometry": { "type": "Point", "coordinates": [ -117.093388, 32.619858 ] } },
{ "type": "Feature", "properties": { "unitid": "444130", "name": "Northcentral University", "district": null, "type": "College / University", "education_site_type": "College / University", "address": "9388 Lightwave Avenue", "city": "San Diego", "state": "CA", "zip": "92123", "lat": 32.829299, "lon": -117.127296, "tract_geoid": "06073008511", "source": "NCES EDGE / IPEDS Postsecondary School Locations 2024-25" }, "geometry": { "type": "Point", "coordinates": [ -117.127296, 32.829299 ] } },
{ "type": "Feature", "properties": { "unitid": "444361", "name": "ATA College", "district": null, "type": "College / University", "education_site_type": "College / University", "address": "1810 Gillespie Way, Suite 104", "city": "El Cajon", "state": "CA", "zip": "92020", "lat": 32.819023, "lon": -116.981781, "tract_geoid": "06073016201", "source": "NCES EDGE / IPEDS Postsecondary School Locations 2024-25" }, "geometry": { "type": "Point", "coordinates": [ -116.981781, 32.819023 ] } },
{ "type": "Feature", "properties": { "unitid": "447050", "name": "United States University", "district": null, "type": "College / University", "education_site_type": "College / University", "address": "404 Camino del Rio South, Suite 102", "city": "San Diego", "state": "CA", "zip": "92108", "lat": 32.761148, "lon": -117.162166, "tract_geoid": "06073009307", "source": "NCES EDGE / IPEDS Postsecondary School Locations 2024-25" }, "geometry": { "type": "Point", "coordinates": [ -117.162166, 32.761148 ] } },
{ "type": "Feature", "properties": { "unitid": "447607", "name": "UEI College-Chula Vista", "district": null, "type": "College / University", "education_site_type": "College / University", "address": "1261 Third Avenue, Suite A", "city": "Chula Vista", "state": "CA", "zip": "91911-3262", "lat": 32.608605, "lon": -117.065355, "tract_geoid": "06073013203", "source": "NCES EDGE / IPEDS Postsecondary School Locations 2024-25" }, "geometry": { "type": "Point", "coordinates": [ -117.065355, 32.608605 ] } },
{ "type": "Feature", "properties": { "unitid": "449968", "name": "Paul Mitchell the School-San Diego", "district": null, "type": "College / University", "education_site_type": "College / University", "address": "410 A Street", "city": "San Diego", "state": "CA", "zip": "92101", "lat": 32.719128, "lon": -117.160838, "tract_geoid": "06073005301", "source": "NCES EDGE / IPEDS Postsecondary School Locations 2024-25" }, "geometry": { "type": "Point", "coordinates": [ -117.160838, 32.719128 ] } },
{ "type": "Feature", "properties": { "unitid": "454795", "name": "Healing Hands School of Holistic Health", "district": null, "type": "College / University", "education_site_type": "College / University", "address": "344 East Valley Parkway", "city": "Escondido", "state": "CA", "zip": "92025", "lat": 33.124571, "lon": -117.078694, "tract_geoid": "06073020214", "source": "NCES EDGE / IPEDS Postsecondary School Locations 2024-25" }, "geometry": { "type": "Point", "coordinates": [ -117.078694, 33.124571 ] } },
{ "type": "Feature", "properties": { "unitid": "462354", "name": "John Paul the Great Catholic University", "district": null, "type": "College / University", "education_site_type": "College / University", "address": "155 W. Grand Ave", "city": "Escondido", "state": "CA", "zip": "92025", "lat": 33.12085, "lon": -117.082401, "tract_geoid": "06073020214", "source": "NCES EDGE / IPEDS Postsecondary School Locations 2024-25" }, "geometry": { "type": "Point", "coordinates": [ -117.082401, 33.12085 ] } },
{ "type": "Feature", "properties": { "unitid": "468848", "name": "UEI College-Oceanside", "district": null, "type": "College / University", "education_site_type": "College / University", "address": "2027 Mission Avenue", "city": "Oceanside", "state": "CA", "zip": "92058-2321", "lat": 33.204442, "lon": -117.36182, "tract_geoid": "06073018509", "source": "NCES EDGE / IPEDS Postsecondary School Locations 2024-25" }, "geometry": { "type": "Point", "coordinates": [ -117.36182, 33.204442 ] } },
{ "type": "Feature", "properties": { "unitid": "480781", "name": "California Miramar University", "district": null, "type": "College / University", "education_site_type": "College / University", "address": "3550 Camino Del Rio North, Suite 208", "city": "San Diego", "state": "CA", "zip": "92108-1739", "lat": 32.77942, "lon": -117.11851, "tract_geoid": "06073009307", "source": "NCES EDGE / IPEDS Postsecondary School Locations 2024-25" }, "geometry": { "type": "Point", "coordinates": [ -117.11851, 32.77942 ] } },
{ "type": "Feature", "properties": { "unitid": "481535", "name": "Sanford Burnham Prebys Medical Discovery Institute", "district": null, "type": "College / University", "education_site_type": "College / University", "address": "10901 North Torrey Pines Road", "city": "La Jolla", "state": "CA", "zip": "92037-1005", "lat": 32.900056, "lon": -117.241748, "tract_geoid": "06073008339", "source": "NCES EDGE / IPEDS Postsecondary School Locations 2024-25" }, "geometry": { "type": "Point", "coordinates": [ -117.241748, 32.900056 ] } },
{ "type": "Feature", "properties": { "unitid": "485403", "name": "High Tech High Graduate School of Education", "district": null, "type": "College / University", "education_site_type": "College / University", "address": "2861 Womble Road", "city": "San Diego", "state": "CA", "zip": "92106", "lat": 32.732001, "lon": -117.217661, "tract_geoid": "06073021401", "source": "NCES EDGE / IPEDS Postsecondary School Locations 2024-25" }, "geometry": { "type": "Point", "coordinates": [ -117.217661, 32.732001 ] } },
{ "type": "Feature", "properties": { "unitid": "485494", "name": "Associated Barber College of San Diego", "district": null, "type": "College / University", "education_site_type": "College / University", "address": "1333 5th Avenue", "city": "San Diego", "state": "CA", "zip": "92101-4210", "lat": 32.719318, "lon": -117.159908, "tract_geoid": "06073005301", "source": "NCES EDGE / IPEDS Postsecondary School Locations 2024-25" }, "geometry": { "type": "Point", "coordinates": [ -117.159908, 32.719318 ] } },
{ "type": "Feature", "properties": { "unitid": "486497", "name": "California Barber and Beauty College", "district": null, "type": "College / University", "education_site_type": "College / University", "address": "5315 El Cajon Boulevard", "city": "San Diego", "state": "CA", "zip": "92115-4730", "lat": 32.757282, "lon": -117.0814, "tract_geoid": "06073002708", "source": "NCES EDGE / IPEDS Postsecondary School Locations 2024-25" }, "geometry": { "type": "Point", "coordinates": [ -117.0814, 32.757282 ] } },
{ "type": "Feature", "properties": { "unitid": "488785", "name": "University of Saint Katherine", "district": null, "type": "College / University", "education_site_type": "College / University", "address": "277 Rancheros Drive, Suite 200", "city": "San Marcos", "state": "CA", "zip": "92069", "lat": 33.138387, "lon": -117.160766, "tract_geoid": "06073020023", "source": "NCES EDGE / IPEDS Postsecondary School Locations 2024-25" }, "geometry": { "type": "Point", "coordinates": [ -117.160766, 33.138387 ] } },
{ "type": "Feature", "properties": { "unitid": "490285", "name": "California Institute of Arts & Technology", "district": null, "type": "College / University", "education_site_type": "College / University", "address": "401 Mile of Cars Way Suite 100", "city": "National City", "state": "CA", "zip": "91950", "lat": 32.661577, "lon": -117.106076, "tract_geoid": "06073021900", "source": "NCES EDGE / IPEDS Postsecondary School Locations 2024-25" }, "geometry": { "type": "Point", "coordinates": [ -117.106076, 32.661577 ] } },
{ "type": "Feature", "properties": { "unitid": "491190", "name": "The Chicago School at San Diego", "district": null, "type": "College / University", "education_site_type": "College / University", "address": "401 W. A Street at 1 Columbia Place", "city": "San Diego", "state": "CA", "zip": "92101-7903", "lat": 32.718575, "lon": -117.167054, "tract_geoid": "06073005402", "source": "NCES EDGE / IPEDS Postsecondary School Locations 2024-25" }, "geometry": { "type": "Point", "coordinates": [ -117.167054, 32.718575 ] } },
{ "type": "Feature", "properties": { "unitid": "491659", "name": "ICOHS College", "district": null, "type": "College / University", "education_site_type": "College / University", "address": "1770 4th Avenue", "city": "San Diego", "state": "CA", "zip": "92101", "lat": 32.723881, "lon": -117.16145, "tract_geoid": "06073005700", "source": "NCES EDGE / IPEDS Postsecondary School Locations 2024-25" }, "geometry": { "type": "Point", "coordinates": [ -117.16145, 32.723881 ] } },
{ "type": "Feature", "properties": { "unitid": "492306", "name": "Escondido Adult School", "district": null, "type": "College / University", "education_site_type": "College / University", "address": "220 W Crest Street", "city": "Escondido", "state": "CA", "zip": "92025", "lat": 33.131225, "lon": -117.088454, "tract_geoid": "06073020214", "source": "NCES EDGE / IPEDS Postsecondary School Locations 2024-25" }, "geometry": { "type": "Point", "coordinates": [ -117.088454, 33.131225 ] } },
{ "type": "Feature", "properties": { "unitid": "492315", "name": "Poway Adult School", "district": null, "type": "College / University", "education_site_type": "College / University", "address": "13626 Twin Peaks Road", "city": "Poway", "state": "CA", "zip": "92064", "lat": 32.978817, "lon": -117.035819, "tract_geoid": "06073017054", "source": "NCES EDGE / IPEDS Postsecondary School Locations 2024-25" }, "geometry": { "type": "Point", "coordinates": [ -117.035819, 32.978817 ] } },
{ "type": "Feature", "properties": { "unitid": "492324", "name": "Vista Adult School", "district": null, "type": "College / University", "education_site_type": "College / University", "address": "510 Sunset Drive", "city": "Vista", "state": "CA", "zip": "92081", "lat": 33.187334, "lon": -117.240253, "tract_geoid": "06073019702", "source": "NCES EDGE / IPEDS Postsecondary School Locations 2024-25" }, "geometry": { "type": "Point", "coordinates": [ -117.240253, 33.187334 ] } },
{ "type": "Feature", "properties": { "unitid": "492449", "name": "Pima Medical Institute-San Marcos", "district": null, "type": "College / University", "education_site_type": "College / University", "address": "111 Campus Way", "city": "San Marcos", "state": "CA", "zip": "92078-8702", "lat": 33.136906, "lon": -117.160199, "tract_geoid": "06073020310", "source": "NCES EDGE / IPEDS Postsecondary School Locations 2024-25" }, "geometry": { "type": "Point", "coordinates": [ -117.160199, 33.136906 ] } },
{ "type": "Feature", "properties": { "unitid": "493512", "name": "San Diego Global Knowledge University", "district": null, "type": "College / University", "education_site_type": "College / University", "address": "1095 K Street, Suite B", "city": "San Diego", "state": "CA", "zip": "92101", "lat": 32.708222, "lon": -117.154966, "tract_geoid": "06073005102", "source": "NCES EDGE / IPEDS Postsecondary School Locations 2024-25" }, "geometry": { "type": "Point", "coordinates": [ -117.154966, 32.708222 ] } },
{ "type": "Feature", "properties": { "unitid": "494746", "name": "North-West College-San Diego", "district": null, "type": "College / University", "education_site_type": "College / University", "address": "6106 Arosa St", "city": "San Diego", "state": "CA", "zip": "92115-1506", "lat": 32.765537, "lon": -117.066577, "tract_geoid": "06073002904", "source": "NCES EDGE / IPEDS Postsecondary School Locations 2024-25" }, "geometry": { "type": "Point", "coordinates": [ -117.066577, 32.765537 ] } },
{ "type": "Feature", "properties": { "unitid": "496186", "name": "California Institute of Arts & Technology-National City", "district": null, "type": "College / University", "education_site_type": "College / University", "address": "401 Mile of Cars Way Suite 100", "city": "National City", "state": "CA", "zip": "91950-6610", "lat": 32.661577, "lon": -117.106076, "tract_geoid": "06073021900", "source": "NCES EDGE / IPEDS Postsecondary School Locations 2024-25" }, "geometry": { "type": "Point", "coordinates": [ -117.106076, 32.661577 ] } },
{ "type": "Feature", "properties": { "unitid": "496663", "name": "Riggins Urban Barber College", "district": null, "type": "College / University", "education_site_type": "College / University", "address": "220 Euclid Avenue Ste 120", "city": "San Diego", "state": "CA", "zip": "92114-3618", "lat": 32.706069, "lon": -117.086115, "tract_geoid": "06073003304", "source": "NCES EDGE / IPEDS Postsecondary School Locations 2024-25" }, "geometry": { "type": "Point", "coordinates": [ -117.086115, 32.706069 ] } },
{ "type": "Feature", "properties": { "unitid": "497435", "name": "Southern California College of Barber and Beauty", "district": null, "type": "College / University", "education_site_type": "College / University", "address": "641 North Broadway", "city": "Escondido", "state": "CA", "zip": "92025-1801", "lat": 33.127963, "lon": -117.085916, "tract_geoid": "06073020214", "source": "NCES EDGE / IPEDS Postsecondary School Locations 2024-25" }, "geometry": { "type": "Point", "coordinates": [ -117.085916, 33.127963 ] } },
{ "type": "Feature", "properties": { "unitid": "498836", "name": "The Nurse Academy", "district": null, "type": "College / University", "education_site_type": "College / University", "address": "2345 East 8th Street", "city": "National City", "state": "CA", "zip": "91950-2964", "lat": 32.682892, "lon": -117.082699, "tract_geoid": "06073022000", "source": "NCES EDGE / IPEDS Postsecondary School Locations 2024-25" }, "geometry": { "type": "Point", "coordinates": [ -117.082699, 32.682892 ] } },
{ "type": "Feature", "properties": { "unitid": "499893", "name": "West Coast Barber College", "district": null, "type": "College / University", "education_site_type": "College / University", "address": "3753 Mission Ave", "city": "Oceanside", "state": "CA", "zip": "92058-1472", "lat": 33.224473, "lon": -117.331497, "tract_geoid": "06073018510", "source": "NCES EDGE / IPEDS Postsecondary School Locations 2024-25" }, "geometry": { "type": "Point", "coordinates": [ -117.331497, 33.224473 ] } }
]
}
