{
"type": "FeatureCollection",
"name": "county_regions",
"crs": { "type": "name", "properties": { "name": "urn:ogc:def:crs:OGC:1.3:CRS84" } },
"features": [
{ "type": "Feature", "properties": { "county_region_id": "east_san_diego", "county_region": "East San Diego", "tract_geoid": "06073016706", "puma_code": "7307" }, "geometry": { "type": "Polygon", "coordinates": [ [ [ -117.05127, 32.742462 ], [ -117.049281, 32.743582 ], [ -117.049132, 32.755187 ], [ -117.053973, 32.755326 ], [ -117.053353, 32.763268 ], [ -117.05116, 32.763249 ], [ -117.051133, 32.766014 ], [ -117.045584, 32.766006 ], [ -117.045602, 32.767647 ], [ -117.040398, 32.767743 ], [ -117.040424, 32.768826 ], [ -117.038953, 32.768849 ], [ -117.038992, 32.770355 ], [ -117.039642, 32.770355 ], [ -117.039909, 32.77138 ], [ -117.040357, 32.771374 ], [ -117.040377, 32.770953 ], [ -117.047023, 32.770842 ], [ -117.046485, 32.773488 ], [ -117.048602, 32.774257 ], [ -117.048814, 32.775739 ], [ -117.051675, 32.776762 ], [ -117.058352, 32.778036 ], [ -117.064031, 32.779482 ], [ -117.074492, 32.779196 ], [ -117.087456, 32.780631 ], [ -117.093455, 32.780286 ], [ -117.104432, 32.778695 ], [ -117.112508, 32.778519 ], [ -117.114558, 32.785474 ], [ -117.11421, 32.78778 ], [ -117.112329, 32.793431 ], [ -117.112198, 32.795286 ], [ -117.112624, 32.799338 ], [ -117.115318, 32.81646 ], [ -117.119004, 32.83294 ], [ -117.120819, 32.837327 ], [ -117.121163, 32.838908 ], [ -117.120926, 32.841647 ], [ -117.113805, 32.841774 ], [ -117.095909, 32.841131 ], [ -117.09365, 32.841412 ], [ -117.083916, 32.843618 ], [ -117.079269, 32.845663 ], [ -117.070111, 32.852494 ], [ -117.067903, 32.853523 ], [ -117.065517, 32.854212 ], [ -117.060754, 32.854521 ], [ -117.051642, 32.853195 ], [ -117.052903, 32.855171 ], [ -117.053269, 32.887266 ], [ -117.070343, 32.887545 ], [ -117.059642, 32.89509 ], [ -117.057369, 32.902077 ], [ -117.061956, 32.901992 ], [ -117.062541, 32.899942 ], [ -117.06585, 32.899991 ], [ -117.066796, 32.900336 ], [ -117.066772, 32.898523 ], [ -117.07534, 32.898427 ], [ -117.075359, 32.89657 ], [ -117.084197, 32.896527 ], [ -117.084274, 32.894692 ], [ -117.086348, 32.894512 ], [ -117.086409, 32.892913 ], [ -117.088547, 32.892651 ], [ -117.088605, 32.891102 ], [ -117.091797, 32.891081 ], [ -117.0916, 32.889257 ], [ -117.095906, 32.889269 ], [ -117.095763, 32.887442 ], [ -117.105426, 32.887448 ], [ -117.105617, 32.891101 ], [ -117.109867, 32.89109 ], [ -117.109773, 32.894277 ], [ -117.108927, 32.894582 ], [ -117.106988, 32.896058 ], [ -117.099908, 32.898686 ], [ -117.095203, 32.901279 ], [ -117.092441, 32.902056 ], [ -117.089177, 32.903571 ], [ -117.083612, 32.905416 ], [ -117.079356, 32.906242 ], [ -117.077301, 32.907179 ], [ -117.075243, 32.90867 ], [ -117.070982, 32.91517 ], [ -117.069288, 32.916063 ], [ -117.067191, 32.917797 ], [ -117.064053, 32.919223 ], [ -117.063045, 32.920386 ], [ -117.062713, 32.921767 ], [ -117.059943, 32.922568 ], [ -117.057981, 32.923931 ], [ -117.056176, 32.926036 ], [ -117.05592, 32.927192 ], [ -117.056123, 32.928359 ], [ -117.055541, 32.929001 ], [ -117.050184, 32.927593 ], [ -117.048208, 32.927801 ], [ -117.046507, 32.927158 ], [ -117.044165, 32.927654 ], [ -117.037457, 32.927253 ], [ -117.036521, 32.92792 ], [ -117.033954, 32.928021 ], [ -117.033041, 32.929098 ], [ -117.029852, 32.930448 ], [ -117.027903, 32.930803 ], [ -117.026128, 32.931928 ], [ -117.017687, 32.934525 ], [ -117.014952, 32.937133 ], [ -117.012979, 32.937319 ], [ -117.012532, 32.938822 ], [ -117.010529, 32.940451 ], [ -117.010478, 32.941355 ], [ -117.008443, 32.941607 ], [ -117.007828, 32.942125 ], [ -117.001152, 32.944381 ], [ -117.000858, 32.944729 ], [ -116.999278, 32.944197 ], [ -116.997863, 32.943107 ], [ -116.995924, 32.942311 ], [ -116.9903, 32.942376 ], [ -116.98532, 32.942864 ], [ -116.983363, 32.942532 ], [ -116.981981, 32.942626 ], [ -116.980807, 32.942085 ], [ -116.980313, 32.942619 ], [ -116.978501, 32.942785 ], [ -116.977756, 32.943281 ], [ -116.974308, 32.94363 ], [ -116.971861, 32.944757 ], [ -116.970613, 32.944362 ], [ -116.968509, 32.944662 ], [ -116.967433, 32.94576 ], [ -116.966698, 32.946053 ], [ -116.965831, 32.94522 ], [ -116.965493, 32.943787 ], [ -116.962763, 32.943154 ], [ -116.961512, 32.941575 ], [ -116.959833, 32.941544 ], [ -116.955883, 32.940077 ], [ -116.956189, 32.94165 ], [ -116.957237, 32.942786 ], [ -116.961204, 32.94482 ], [ -116.962507, 32.945917 ], [ -116.967518, 32.952578 ], [ -116.97218, 32.959851 ], [ -116.972467, 32.962427 ], [ -116.970145, 32.969376 ], [ -116.970117, 32.97056 ], [ -116.971606, 32.973094 ], [ -116.975274, 32.985427 ], [ -116.976284, 32.986749 ], [ -116.978778, 32.988502 ], [ -116.979382, 32.990151 ], [ -116.979131, 32.991508 ], [ -116.978393, 32.992836 ], [ -116.975195, 32.995109 ], [ -116.971586, 32.99621 ], [ -116.967811, 32.996933 ], [ -116.965098, 32.997893 ], [ -116.95967, 32.998811 ], [ -116.958484, 32.999728 ], [ -116.957757, 33.003168 ], [ -116.95619, 33.005554 ], [ -116.954336, 33.011084 ], [ -116.953664, 33.011936 ], [ -116.952848, 33.01233 ], [ -116.953153, 33.013105 ], [ -116.953202, 33.018216 ], [ -116.954915, 33.022965 ], [ -116.957108, 33.026527 ], [ -116.957509, 33.02978 ], [ -116.958716, 33.03314 ], [ -116.964596, 33.032013 ], [ -116.965999, 33.031098 ], [ -116.969826, 33.029779 ], [ -116.972273, 33.030175 ], [ -116.973987, 33.031807 ], [ -116.973926, 33.035009 ], [ -116.973562, 33.03639 ], [ -116.971381, 33.037061 ], [ -116.971517, 33.037682 ], [ -116.97099, 33.038474 ], [ -116.971321, 33.038707 ], [ -116.970975, 33.039527 ], [ -116.972383, 33.040406 ], [ -116.971342, 33.041653 ], [ -116.971436, 33.042848 ], [ -116.974125, 33.044433 ], [ -116.97381, 33.045066 ], [ -116.971073, 33.047407 ], [ -116.970115, 33.051426 ], [ -116.970399, 33.054393 ], [ -116.971175, 33.056733 ], [ -116.970963, 33.062738 ], [ -116.97149, 33.064221 ], [ -116.972375, 33.064897 ], [ -116.972627, 33.067227 ], [ -116.973504, 33.068127 ], [ -116.97429, 33.069832 ], [ -116.977721, 33.073694 ], [ -116.974616, 33.075273 ], [ -116.973548, 33.078522 ], [ -116.97228, 33.080223 ], [ -116.969543, 33.082477 ], [ -116.962838, 33.083896 ], [ -116.960528, 33.08476 ], [ -116.955756, 33.085411 ], [ -116.954903, 33.08602 ], [ -116.954946, 33.087737 ], [ -116.946689, 33.087781 ], [ -116.946309, 33.089467 ], [ -116.943033, 33.091137 ], [ -116.941205, 33.091378 ], [ -116.938178, 33.090397 ], [ -116.937037, 33.087367 ], [ -116.93522, 33.086109 ], [ -116.93321, 33.085721 ], [ -116.931029, 33.085921 ], [ -116.930482, 33.08631 ], [ -116.930185, 33.087139 ], [ -116.929512, 33.087404 ], [ -116.926963, 33.086643 ], [ -116.925332, 33.08572 ], [ -116.922766, 33.085976 ], [ -116.921399, 33.084386 ], [ -116.921208, 33.083122 ], [ -116.920581, 33.082805 ], [ -116.920364, 33.08336 ], [ -116.919562, 33.08397 ], [ -116.919402, 33.084897 ], [ -116.918029, 33.084851 ], [ -116.91587, 33.086873 ], [ -116.915007, 33.087018 ], [ -116.914382, 33.086686 ], [ -116.913771, 33.086831 ], [ -116.912848, 33.0863 ], [ -116.911757, 33.086316 ], [ -116.910582, 33.08743 ], [ -116.910491, 33.088509 ], [ -116.90856, 33.088631 ], [ -116.9065, 33.089947 ], [ -116.905638, 33.089913 ], [ -116.904173, 33.089078 ], [ -116.902464, 33.089803 ], [ -116.901297, 33.088586 ], [ -116.900244, 33.088101 ], [ -116.897948, 33.087761 ], [ -116.897284, 33.088849 ], [ -116.897543, 33.091332 ], [ -116.897284, 33.092103 ], [ -116.896727, 33.092156 ], [ -116.894423, 33.090126 ], [ -116.893438, 33.089936 ], [ -116.892648, 33.090201 ], [ -116.89337, 33.15746 ], [ -116.893145, 33.164136 ], [ -116.902241, 33.163034 ], [ -116.908195, 33.158735 ], [ -116.908589, 33.158163 ], [ -116.91375, 33.154243 ], [ -116.915131, 33.153715 ], [ -116.916803, 33.152177 ], [ -116.917674, 33.152697 ], [ -116.919474, 33.15665 ], [ -116.919675, 33.160446 ], [ -116.920183, 33.160841 ], [ -116.921047, 33.160935 ], [ -116.92139, 33.161384 ], [ -116.921886, 33.160694 ], [ -116.92383, 33.16074 ], [ -116.92607, 33.159464 ], [ -116.928308, 33.159004 ], [ -116.928836, 33.158488 ], [ -116.931774, 33.158262 ], [ -116.933461, 33.158343 ], [ -116.935505, 33.159391 ], [ -116.935716, 33.160867 ], [ -116.936334, 33.161332 ], [ -116.938461, 33.161687 ], [ -116.940511, 33.160356 ], [ -116.942373, 33.160395 ], [ -116.943293, 33.161614 ], [ -116.943815, 33.1649 ], [ -116.943169, 33.168493 ], [ -116.945278, 33.169819 ], [ -116.946882, 33.170052 ], [ -116.947725, 33.169873 ], [ -116.951329, 33.166953 ], [ -116.955799, 33.16661 ], [ -116.959191, 33.167801 ], [ -116.960179, 33.168718 ], [ -116.960774, 33.168865 ], [ -116.962866, 33.166672 ], [ -116.964507, 33.166184 ], [ -116.965267, 33.166953 ], [ -116.96687, 33.16736 ], [ -116.967267, 33.16786 ], [ -116.967142, 33.169016 ], [ -116.967728, 33.171416 ], [ -116.969578, 33.175213 ], [ -116.971525, 33.178115 ], [ -116.971772, 33.181232 ], [ -116.971221, 33.183321 ], [ -116.984773, 33.183225 ], [ -116.98476, 33.19043 ], [ -116.980331, 33.190463 ], [ -116.980258, 33.197903 ], [ -116.989132, 33.198003 ], [ -116.990216, 33.198438 ], [ -116.994434, 33.198443 ], [ -117.00661, 33.199933 ], [ -117.019802, 33.20049 ], [ -117.027851, 33.198843 ], [ -117.028024, 33.198049 ], [ -117.028227, 33.198579 ], [ -117.029126, 33.19928 ], [ -117.029753, 33.199044 ], [ -117.030165, 33.198439 ], [ -117.030884, 33.19841 ], [ -117.030847, 33.199683 ], [ -117.031478, 33.201779 ], [ -117.032815, 33.204308 ], [ -117.033259, 33.205931 ], [ -117.033573, 33.209991 ], [ -117.037123, 33.20999 ], [ -117.037287, 33.211096 ], [ -117.049835, 33.211429 ], [ -117.051193, 33.210773 ], [ -117.053355, 33.210638 ], [ -117.055133, 33.21016 ], [ -117.057462, 33.2109 ], [ -117.061067, 33.210879 ], [ -117.063345, 33.211601 ], [ -117.072294, 33.211322 ], [ -117.072727, 33.214857 ], [ -117.077656, 33.213968 ], [ -117.081741, 33.215463 ], [ -117.083408, 33.215122 ], [ -117.086988, 33.215776 ], [ -117.088122, 33.213126 ], [ -117.08578, 33.210494 ], [ -117.086383, 33.210481 ], [ -117.088991, 33.212029 ], [ -117.08965, 33.208651 ], [ -117.092267, 33.209622 ], [ -117.093966, 33.208759 ], [ -117.096716, 33.208619 ], [ -117.102148, 33.209625 ], [ -117.100374, 33.210943 ], [ -117.099316, 33.212715 ], [ -117.101233, 33.211986 ], [ -117.108604, 33.211638 ], [ -117.108089, 33.210668 ], [ -117.111557, 33.204859 ], [ -117.11641, 33.203149 ], [ -117.11783, 33.202266 ], [ -117.118516, 33.201458 ], [ -117.118987, 33.200018 ], [ -117.119793, 33.199258 ], [ -117.123351, 33.198446 ], [ -117.125917, 33.19719 ], [ -117.129645, 33.203323 ], [ -117.139431, 33.21662 ], [ -117.142333, 33.221193 ], [ -117.156184, 33.252933 ], [ -117.158768, 33.25324 ], [ -117.163203, 33.253129 ], [ -117.168509, 33.251897 ], [ -117.173499, 33.251445 ], [ -117.175564, 33.251795 ], [ -117.178355, 33.253236 ], [ -117.180097, 33.253599 ], [ -117.181267, 33.253527 ], [ -117.18511, 33.252471 ], [ -117.190115, 33.253167 ], [ -117.19529, 33.252279 ], [ -117.19893, 33.252781 ], [ -117.201311, 33.252805 ], [ -117.207156, 33.254427 ], [ -117.209325, 33.255964 ], [ -117.212862, 33.256915 ], [ -117.21259, 33.25871 ], [ -117.214831, 33.260502 ], [ -117.217453, 33.261173 ], [ -117.218444, 33.261976 ], [ -117.222031, 33.263371 ], [ -117.223936, 33.263517 ], [ -117.229061, 33.26683 ], [ -117.230595, 33.267269 ], [ -117.233058, 33.267286 ], [ -117.233207, 33.265636 ], [ -117.235424, 33.260087 ], [ -117.236397, 33.259666 ], [ -117.237153, 33.265551 ], [ -117.236937, 33.26728 ], [ -117.238146, 33.267796 ], [ -117.241525, 33.2685 ], [ -117.244038, 33.267085 ], [ -117.244964, 33.267082 ], [ -117.244988, 33.278007 ], [ -117.245832, 33.278035 ], [ -117.245648, 33.279053 ], [ -117.246466, 33.279047 ], [ -117.246647, 33.279748 ], [ -117.247048, 33.27999 ], [ -117.246779, 33.280851 ], [ -117.247543, 33.28113 ], [ -117.246478, 33.282054 ], [ -117.247214, 33.282537 ], [ -117.246918, 33.283357 ], [ -117.246221, 33.28399 ], [ -117.246115, 33.284648 ], [ -117.244769, 33.285987 ], [ -117.24455, 33.286599 ], [ -117.242453, 33.288289 ], [ -117.242372, 33.290109 ], [ -117.241473, 33.292625 ], [ -117.24318, 33.293717 ], [ -117.242715, 33.295759 ], [ -117.242925, 33.297014 ], [ -117.242116, 33.300093 ], [ -117.242456, 33.302621 ], [ -117.242892, 33.303252 ], [ -117.244806, 33.304557 ], [ -117.245699, 33.307761 ], [ -117.248149, 33.311164 ], [ -117.248989, 33.312974 ], [ -117.249204, 33.321834 ], [ -117.26008, 33.321853 ], [ -117.26008, 33.329205 ], [ -117.249243, 33.328929 ], [ -117.249399, 33.339599 ], [ -117.253498, 33.339755 ], [ -117.253841, 33.358224 ], [ -117.26208, 33.358293 ], [ -117.258169, 33.388446 ], [ -117.257368, 33.39163 ], [ -117.255252, 33.406456 ], [ -117.262158, 33.4064 ], [ -117.27431, 33.407385 ], [ -117.295261, 33.417839 ], [ -117.313489, 33.407856 ], [ -117.313556, 33.412851 ], [ -117.318003, 33.412972 ], [ -117.317976, 33.416576 ], [ -117.323147, 33.416521 ], [ -117.323055, 33.413088 ], [ -117.324692, 33.41306 ], [ -117.32449, 33.416542 ], [ -117.326511, 33.416654 ], [ -117.326377, 33.423507 ], [ -117.330622, 33.423507 ], [ -117.330689, 33.420024 ], [ -117.339376, 33.420117 ], [ -117.339519, 33.426904 ], [ -117.33505, 33.427023 ], [ -117.335025, 33.430672 ], [ -117.339627, 33.430513 ], [ -117.340645, 33.430828 ], [ -117.344208, 33.430517 ], [ -117.363418, 33.430152 ], [ -117.363525, 33.44468 ], [ -117.397429, 33.444634 ], [ -117.400522, 33.455783 ], [ -117.407755, 33.460144 ], [ -117.434274, 33.468134 ], [ -117.457956, 33.475698 ], [ -117.460841, 33.476145 ], [ -117.464421, 33.477172 ], [ -117.465113, 33.477271 ], [ -117.465803, 33.47675 ], [ -117.466207, 33.476132 ], [ -117.466157, 33.474521 ], [ -117.466733, 33.473666 ], [ -117.468804, 33.472768 ], [ -117.469899, 33.471248 ], [ -117.472088, 33.470541 ], [ -117.47541, 33.47021 ], [ -117.471912, 33.487854 ], [ -117.478288, 33.494811 ], [ -117.483669, 33.497521 ], [ -117.482715, 33.500145 ], [ -117.487673, 33.503344 ], [ -117.490463, 33.501225 ], [ -117.509381, 33.484094 ], [ -117.509816, 33.505177 ], [ -117.485904, 33.505054 ], [ -117.432696, 33.505379 ], [ -117.364274, 33.5049 ], [ -117.370797, 33.490662 ], [ -117.241467, 33.448825 ], [ -117.241352, 33.431929 ], [ -117.138777, 33.432594 ], [ -117.104397, 33.430255 ], [ -117.061106, 33.430374 ], [ -117.030854, 33.4299 ], [ -117.030876, 33.426869 ], [ -116.998818, 33.426961 ], [ -116.982017, 33.427425 ], [ -116.857106, 33.426835 ], [ -116.771529, 33.427067 ], [ -116.719759, 33.427568 ], [ -116.633989, 33.427131 ], [ -116.617688, 33.427437 ], [ -116.50492, 33.42711 ], [ -116.402396, 33.427515 ], [ -116.371321, 33.427313 ], [ -116.298533, 33.427455 ], [ -116.263748, 33.428149 ], [ -116.197698, 33.428914 ], [ -116.129863, 33.42611 ], [ -116.084893, 33.426317 ], [ -116.085209, 33.339216 ], [ -116.082244, 33.25108 ], [ -116.081166, 33.190837 ], [ -116.08088, 33.147418 ], [ -116.081204, 33.074864 ], [ -116.103338, 33.074832 ], [ -116.103028, 33.0016 ], [ -116.103194, 32.903702 ], [ -116.103701, 32.888969 ], [ -116.102842, 32.868775 ], [ -116.103454, 32.841872 ], [ -116.103584, 32.814415 ], [ -116.102989, 32.726353 ], [ -116.105584, 32.726347 ], [ -116.105743, 32.639105 ], [ -116.106177, 32.618441 ], [ -116.745516, 32.566494 ], [ -116.757296, 32.565507 ], [ -116.757469, 32.565906 ], [ -116.759804, 32.565524 ], [ -116.762271, 32.566718 ], [ -116.76381, 32.566669 ], [ -116.76444, 32.567076 ], [ -116.765356, 32.567143 ], [ -116.763861, 32.568599 ], [ -116.757027, 32.573178 ], [ -116.756896, 32.573573 ], [ -116.745938, 32.577391 ], [ -116.74457, 32.578367 ], [ -116.743967, 32.58263 ], [ -116.744258, 32.583464 ], [ -116.747181, 32.586136 ], [ -116.747213, 32.587165 ], [ -116.746425, 32.587807 ], [ -116.744784, 32.588134 ], [ -116.740777, 32.587904 ], [ -116.736863, 32.588206 ], [ -116.730304, 32.589752 ], [ -116.722897, 32.592752 ], [ -116.721986, 32.593406 ], [ -116.720413, 32.597216 ], [ -116.717865, 32.599162 ], [ -116.71692, 32.600888 ], [ -116.715092, 32.602248 ], [ -116.714778, 32.604297 ], [ -116.713684, 32.606904 ], [ -116.71149, 32.608163 ], [ -116.709249, 32.608735 ], [ -116.707993, 32.608732 ], [ -116.706179, 32.608244 ], [ -116.701956, 32.606352 ], [ -116.699883, 32.60608 ], [ -116.698264, 32.606439 ], [ -116.69746, 32.60561 ], [ -116.695939, 32.605989 ], [ -116.695341, 32.607121 ], [ -116.695911, 32.607612 ], [ -116.695884, 32.608093 ], [ -116.697454, 32.609462 ], [ -116.698896, 32.609677 ], [ -116.698546, 32.610359 ], [ -116.699338, 32.612195 ], [ -116.699313, 32.613708 ], [ -116.697955, 32.61616 ], [ -116.696181, 32.617535 ], [ -116.694141, 32.618217 ], [ -116.69214, 32.619713 ], [ -116.69112, 32.621748 ], [ -116.689248, 32.623535 ], [ -116.688319, 32.623815 ], [ -116.68763, 32.624426 ], [ -116.68624, 32.624794 ], [ -116.686351, 32.625758 ], [ -116.685571, 32.628667 ], [ -116.685733, 32.629651 ], [ -116.687533, 32.631543 ], [ -116.687891, 32.632742 ], [ -116.687599, 32.633154 ], [ -116.686669, 32.633402 ], [ -116.684914, 32.632868 ], [ -116.683426, 32.633077 ], [ -116.68275, 32.634006 ], [ -116.682692, 32.635816 ], [ -116.683069, 32.636509 ], [ -116.683966, 32.637157 ], [ -116.686461, 32.63757 ], [ -116.686981, 32.6379 ], [ -116.687202, 32.638395 ], [ -116.687007, 32.639561 ], [ -116.686344, 32.641298 ], [ -116.684381, 32.641744 ], [ -116.682392, 32.641353 ], [ -116.681489, 32.641727 ], [ -116.681184, 32.642217 ], [ -116.680423, 32.648012 ], [ -116.678349, 32.65366 ], [ -116.67868, 32.654573 ], [ -116.68061, 32.656827 ], [ -116.680513, 32.659121 ], [ -116.679583, 32.660644 ], [ -116.679394, 32.661875 ], [ -116.676378, 32.664762 ], [ -116.675109, 32.668881 ], [ -116.673119, 32.671652 ], [ -116.67174, 32.677294 ], [ -116.671824, 32.67802 ], [ -116.670947, 32.678839 ], [ -116.669752, 32.678857 ], [ -116.669326, 32.680622 ], [ -116.669435, 32.682335 ], [ -116.672305, 32.690111 ], [ -116.672512, 32.69323 ], [ -116.67314, 32.6943 ], [ -116.67574, 32.696522 ], [ -116.676773, 32.69851 ], [ -116.67658, 32.699312 ], [ -116.673758, 32.701143 ], [ -116.673093, 32.702375 ], [ -116.673075, 32.704944 ], [ -116.672081, 32.711473 ], [ -116.673476, 32.714682 ], [ -116.672981, 32.714641 ], [ -116.67325, 32.715012 ], [ -116.676137, 32.716541 ], [ -116.676911, 32.717657 ], [ -116.679512, 32.718515 ], [ -116.678267, 32.71943 ], [ -116.678569, 32.719946 ], [ -116.677608, 32.721553 ], [ -116.678581, 32.723558 ], [ -116.679218, 32.724107 ], [ -116.680754, 32.724056 ], [ -116.681363, 32.724364 ], [ -116.68231, 32.726632 ], [ -116.68243, 32.727996 ], [ -116.68227, 32.728646 ], [ -116.678923, 32.732294 ], [ -116.679241, 32.73306 ], [ -116.678755, 32.734617 ], [ -116.677199, 32.737926 ], [ -116.673849, 32.743214 ], [ -116.672887, 32.743345 ], [ -116.672027, 32.744033 ], [ -116.670979, 32.744199 ], [ -116.669856, 32.743992 ], [ -116.670274, 32.744596 ], [ -116.670164, 32.745115 ], [ -116.668987, 32.745868 ], [ -116.668798, 32.746638 ], [ -116.669406, 32.747168 ], [ -116.668455, 32.747897 ], [ -116.668182, 32.748947 ], [ -116.670883, 32.750494 ], [ -116.671097, 32.752286 ], [ -116.672445, 32.752612 ], [ -116.673408, 32.75348 ], [ -116.674616, 32.753926 ], [ -116.675766, 32.755759 ], [ -116.675587, 32.757853 ], [ -116.674005, 32.759492 ], [ -116.674202, 32.762273 ], [ -116.675217, 32.764488 ], [ -116.676772, 32.764163 ], [ -116.680214, 32.76472 ], [ -116.684094, 32.764345 ], [ -116.687867, 32.764621 ], [ -116.690327, 32.765229 ], [ -116.694083, 32.766887 ], [ -116.69635, 32.768982 ], [ -116.698987, 32.770341 ], [ -116.701338, 32.770928 ], [ -116.704991, 32.771102 ], [ -116.708577, 32.774767 ], [ -116.714209, 32.7779 ], [ -116.712542, 32.777681 ], [ -116.710785, 32.776503 ], [ -116.708287, 32.775915 ], [ -116.708247, 32.776436 ], [ -116.709626, 32.777506 ], [ -116.709587, 32.778182 ], [ -116.708995, 32.778732 ], [ -116.708806, 32.780085 ], [ -116.709763, 32.781382 ], [ -116.709985, 32.782785 ], [ -116.708879, 32.783769 ], [ -116.708274, 32.785226 ], [ -116.708691, 32.786607 ], [ -116.708424, 32.787239 ], [ -116.709095, 32.788839 ], [ -116.711393, 32.78979 ], [ -116.712272, 32.789724 ], [ -116.713672, 32.790224 ], [ -116.714863, 32.790114 ], [ -116.717806, 32.791279 ], [ -116.718711, 32.791196 ], [ -116.719558, 32.7924 ], [ -116.722358, 32.79384 ], [ -116.725821, 32.793867 ], [ -116.727176, 32.794581 ], [ -116.728348, 32.794675 ], [ -116.729175, 32.795224 ], [ -116.730588, 32.79518 ], [ -116.731818, 32.795608 ], [ -116.734292, 32.79475 ], [ -116.735548, 32.793297 ], [ -116.736043, 32.79382 ], [ -116.737404, 32.793759 ], [ -116.739376, 32.794143 ], [ -116.742563, 32.7955 ], [ -116.745122, 32.795606 ], [ -116.747748, 32.793449 ], [ -116.750208, 32.793012 ], [ -116.750856, 32.791774 ], [ -116.756205, 32.79379 ], [ -116.75738, 32.793901 ], [ -116.759683, 32.794948 ], [ -116.760309, 32.794479 ], [ -116.764429, 32.786955 ], [ -116.765335, 32.786225 ], [ -116.768988, 32.78656 ], [ -116.773155, 32.787342 ], [ -116.774482, 32.786539 ], [ -116.775301, 32.785469 ], [ -116.777988, 32.785728 ], [ -116.780573, 32.786518 ], [ -116.783549, 32.786608 ], [ -116.788663, 32.785269 ], [ -116.790409, 32.785155 ], [ -116.792784, 32.7843 ], [ -116.793904, 32.783167 ], [ -116.793981, 32.7827 ], [ -116.792649, 32.780321 ], [ -116.791712, 32.779771 ], [ -116.791471, 32.778643 ], [ -116.792669, 32.777098 ], [ -116.793262, 32.774756 ], [ -116.793887, 32.773893 ], [ -116.796361, 32.772964 ], [ -116.798281, 32.772716 ], [ -116.798835, 32.772013 ], [ -116.800019, 32.771925 ], [ -116.801445, 32.772574 ], [ -116.803169, 32.772931 ], [ -116.803423, 32.773223 ], [ -116.803085, 32.773817 ], [ -116.803221, 32.774218 ], [ -116.805584, 32.774521 ], [ -116.80684, 32.774367 ], [ -116.806893, 32.772794 ], [ -116.807348, 32.772382 ], [ -116.809522, 32.772536 ], [ -116.811094, 32.771513 ], [ -116.810651, 32.771281 ], [ -116.810896, 32.771036 ], [ -116.811688, 32.770685 ], [ -116.812154, 32.771004 ], [ -116.814476, 32.770358 ], [ -116.816331, 32.770308 ], [ -116.81898, 32.771793 ], [ -116.825668, 32.7725 ], [ -116.828548, 32.772437 ], [ -116.831991, 32.769955 ], [ -116.831235, 32.767645 ], [ -116.832569, 32.765803 ], [ -116.833812, 32.765181 ], [ -116.834971, 32.765049 ], [ -116.840438, 32.765582 ], [ -116.840961, 32.765388 ], [ -116.840467, 32.765247 ], [ -116.841397, 32.764482 ], [ -116.843009, 32.763605 ], [ -116.844565, 32.763453 ], [ -116.847823, 32.763842 ], [ -116.850036, 32.765813 ], [ -116.849061, 32.766463 ], [ -116.847459, 32.768397 ], [ -116.847123, 32.772252 ], [ -116.847854, 32.773702 ], [ -116.849824, 32.773825 ], [ -116.850839, 32.774226 ], [ -116.851348, 32.774931 ], [ -116.85239, 32.781409 ], [ -116.854495, 32.781916 ], [ -116.856752, 32.782015 ], [ -116.858693, 32.781572 ], [ -116.861425, 32.780419 ], [ -116.865294, 32.780226 ], [ -116.867729, 32.779116 ], [ -116.869331, 32.779155 ], [ -116.873255, 32.780651 ], [ -116.877025, 32.782914 ], [ -116.883148, 32.785584 ], [ -116.885493, 32.786894 ], [ -116.88737, 32.788387 ], [ -116.888189, 32.78849 ], [ -116.888255, 32.786586 ], [ -116.88943, 32.784406 ], [ -116.889604, 32.783237 ], [ -116.887761, 32.780606 ], [ -116.888089, 32.776915 ], [ -116.886526, 32.772647 ], [ -116.885709, 32.771707 ], [ -116.883123, 32.770351 ], [ -116.882512, 32.769609 ], [ -116.88312, 32.766916 ], [ -116.88426, 32.765985 ], [ -116.888629, 32.764323 ], [ -116.890682, 32.762223 ], [ -116.893055, 32.761482 ], [ -116.894351, 32.760748 ], [ -116.897912, 32.759854 ], [ -116.902978, 32.757399 ], [ -116.906108, 32.759468 ], [ -116.907639, 32.760902 ], [ -116.910981, 32.762051 ], [ -116.920448, 32.762123 ], [ -116.92104, 32.76253 ], [ -116.921771, 32.762117 ], [ -116.927881, 32.762094 ], [ -116.927885, 32.768864 ], [ -116.931837, 32.769083 ], [ -116.935839, 32.771069 ], [ -116.93884, 32.771598 ], [ -116.938595, 32.769387 ], [ -116.940451, 32.769137 ], [ -116.940935, 32.768802 ], [ -116.94184, 32.762651 ], [ -116.942329, 32.762224 ], [ -116.954348, 32.762296 ], [ -116.956062, 32.763071 ], [ -116.95903, 32.763172 ], [ -116.959435, 32.764648 ], [ -116.959875, 32.764929 ], [ -116.962355, 32.764394 ], [ -116.965577, 32.765316 ], [ -116.9664, 32.765957 ], [ -116.972109, 32.766202 ], [ -116.972202, 32.76509 ], [ -116.972605, 32.764714 ], [ -116.976534, 32.76383 ], [ -116.978937, 32.764016 ], [ -116.982938, 32.762504 ], [ -116.983812, 32.762579 ], [ -116.985271, 32.76337 ], [ -116.986961, 32.762998 ], [ -116.988432, 32.763768 ], [ -116.989651, 32.763659 ], [ -116.990939, 32.764066 ], [ -116.991446, 32.763767 ], [ -116.993299, 32.760718 ], [ -116.995661, 32.759744 ], [ -116.996533, 32.759713 ], [ -116.998806, 32.760523 ], [ -117.000478, 32.760254 ], [ -117.002039, 32.761467 ], [ -117.002386, 32.760721 ], [ -117.002167, 32.759795 ], [ -117.002736, 32.759532 ], [ -117.002945, 32.758968 ], [ -117.00323, 32.759063 ], [ -117.003041, 32.760061 ], [ -117.004004, 32.759289 ], [ -117.004303, 32.759647 ], [ -117.01797, 32.74822 ], [ -117.019757, 32.747309 ], [ -117.021956, 32.746902 ], [ -117.026438, 32.74722 ], [ -117.028045, 32.747068 ], [ -117.03499, 32.745306 ], [ -117.037803, 32.744871 ], [ -117.046153, 32.744881 ], [ -117.047561, 32.744379 ], [ -117.050837, 32.742041 ], [ -117.05127, 32.742462 ] ] ] } },
{ "type": "Feature", "properties": { "county_region_id": "metro_san_diego", "county_region": "Metro San Diego", "tract_geoid": "06073017039", "puma_code": "7308" }, "geometry": { "type": "Polygon", "coordinates": [ [ [ -117.135234, 32.584044 ], [ -117.134263, 32.584055 ], [ -117.134763, 32.576855 ], [ -117.134963, 32.563255 ], [ -117.133963, 32.559655 ], [ -117.132463, 32.556456 ], [ -117.130963, 32.554956 ], [ -117.12607, 32.534189 ], [ -117.205051627726874, 32.529509357844304 ], [ -117.210025, 32.554634 ], [ -117.210025, 32.572883 ], [ -117.214112, 32.594781 ], [ -117.218196, 32.610292 ], [ -117.223302, 32.621238 ], [ -117.228408, 32.618502 ], [ -117.233513, 32.616678 ], [ -117.246786, 32.614854 ], [ -117.251994, 32.61486 ], [ -117.255092, 32.615474 ], [ -117.260771, 32.61687 ], [ -117.268789, 32.619415 ], [ -117.272592, 32.621612 ], [ -117.276916, 32.623474 ], [ -117.297538, 32.641769 ], [ -117.309239, 32.656401 ], [ -117.320939, 32.689847 ], [ -117.32562, 32.731653 ], [ -117.3303, 32.804817 ], [ -117.342, 32.840354 ], [ -117.33966, 32.859167 ], [ -117.33264, 32.882161 ], [ -117.323279, 32.903064 ], [ -117.375872, 33.075217 ], [ -117.405213, 33.125038 ], [ -117.435563, 33.177512 ], [ -117.467871, 33.212494 ], [ -117.500875, 33.242151 ], [ -117.507737, 33.250034 ], [ -117.520999, 33.268872 ], [ -117.549601, 33.294418 ], [ -117.571531, 33.312302 ], [ -117.611081, 33.333992 ], [ -117.596554, 33.384377 ], [ -117.590805, 33.381164 ], [ -117.589048, 33.380462 ], [ -117.583318, 33.379855 ], [ -117.581446, 33.379089 ], [ -117.57648, 33.378452 ], [ -117.574111, 33.377271 ], [ -117.572736, 33.37641 ], [ -117.571743, 33.374816 ], [ -117.571585, 33.373914 ], [ -117.569678, 33.372017 ], [ -117.56777, 33.370728 ], [ -117.564773, 33.369134 ], [ -117.560958, 33.367919 ], [ -117.552147, 33.363444 ], [ -117.550512, 33.362913 ], [ -117.508291, 33.331018 ], [ -117.503027, 33.326155 ], [ -117.501606, 33.324201 ], [ -117.48774, 33.311065 ], [ -117.467957, 33.288502 ], [ -117.441265, 33.256815 ], [ -117.440966, 33.255937 ], [ -117.410665, 33.218538 ], [ -117.408448, 33.215138 ], [ -117.408633, 33.210037 ], [ -117.408263, 33.20772 ], [ -117.405861, 33.204628 ], [ -117.40286, 33.202012 ], [ -117.40022, 33.203702 ], [ -117.397891, 33.203182 ], [ -117.392534, 33.198179 ], [ -117.389428, 33.194085 ], [ -117.376955, 33.181381 ], [ -117.370572, 33.176036 ], [ -117.366972, 33.172237 ], [ -117.345771, 33.144138 ], [ -117.316757, 33.091802 ], [ -117.314565, 33.082329 ], [ -117.30057, 33.048041 ], [ -117.297456, 33.036297 ], [ -117.29057, 33.029242 ], [ -117.28367, 33.015043 ], [ -117.281647, 33.010042 ], [ -117.280535, 33.006743 ], [ -117.279569, 32.999435 ], [ -117.27677, 32.995243 ], [ -117.27387, 32.980544 ], [ -117.272487, 32.980508 ], [ -117.272333, 32.980132 ], [ -117.270313, 32.980063 ], [ -117.261595, 32.980431 ], [ -117.256815, 32.979366 ], [ -117.246446, 32.98129 ], [ -117.240534, 32.980741 ], [ -117.235637, 32.981067 ], [ -117.233991, 32.981467 ], [ -117.231961, 32.982455 ], [ -117.230514, 32.982696 ], [ -117.23037, 32.977427 ], [ -117.231106, 32.975704 ], [ -117.228919, 32.974954 ], [ -117.224955, 32.975565 ], [ -117.221103, 32.975344 ], [ -117.217865, 32.974443 ], [ -117.215752, 32.974591 ], [ -117.211398, 32.976159 ], [ -117.206472, 32.979348 ], [ -117.205647, 32.980767 ], [ -117.204895, 32.980697 ], [ -117.202852, 32.980092 ], [ -117.20448, 32.97881 ], [ -117.203214, 32.977579 ], [ -117.200256, 32.977596 ], [ -117.20016, 32.973989 ], [ -117.178515, 32.973925 ], [ -117.17851, 32.970295 ], [ -117.174656, 32.97033 ], [ -117.174374, 32.969974 ], [ -117.169488, 32.97022 ], [ -117.165889, 32.969817 ], [ -117.162039, 32.970546 ], [ -117.154586, 32.970918 ], [ -117.152804, 32.971328 ], [ -117.151197, 32.972166 ], [ -117.144722, 32.977202 ], [ -117.140441, 32.97873 ], [ -117.137324, 32.98022 ], [ -117.136058, 32.981249 ], [ -117.135212, 32.982452 ], [ -117.134372, 32.982091 ], [ -117.133599, 32.982641 ], [ -117.132949, 32.982253 ], [ -117.13094, 32.982491 ], [ -117.130969, 32.976374 ], [ -117.131798, 32.97224 ], [ -117.129197, 32.968402 ], [ -117.128388, 32.965423 ], [ -117.126652, 32.963281 ], [ -117.126268, 32.960418 ], [ -117.126694, 32.958861 ], [ -117.129222, 32.956754 ], [ -117.129891, 32.955437 ], [ -117.130339, 32.95146 ], [ -117.129752, 32.948906 ], [ -117.130121, 32.943963 ], [ -117.128927, 32.940029 ], [ -117.124446, 32.940574 ], [ -117.122256, 32.942104 ], [ -117.120704, 32.942308 ], [ -117.118377, 32.94424 ], [ -117.116714, 32.94391 ], [ -117.115846, 32.943179 ], [ -117.112728, 32.9429 ], [ -117.11235, 32.943192 ], [ -117.112221, 32.944622 ], [ -117.108555, 32.944319 ], [ -117.102241, 32.953776 ], [ -117.100479, 32.956826 ], [ -117.100259, 32.958001 ], [ -117.096083, 32.963837 ], [ -117.083525, 32.984191 ], [ -117.082921, 32.987807 ], [ -117.083961, 32.994987 ], [ -117.083448, 32.997941 ], [ -117.080819, 33.006289 ], [ -117.079189, 33.020889 ], [ -117.078879, 33.030496 ], [ -117.078175, 33.033006 ], [ -117.073253, 33.044638 ], [ -117.073084, 33.051596 ], [ -117.071694, 33.055927 ], [ -117.070436, 33.055513 ], [ -117.068533, 33.054322 ], [ -117.067129, 33.052909 ], [ -117.065738, 33.053027 ], [ -117.064238, 33.053835 ], [ -117.061437, 33.053938 ], [ -117.058068, 33.053415 ], [ -117.056438, 33.052674 ], [ -117.052771, 33.051996 ], [ -117.05119, 33.051374 ], [ -117.047855, 33.051576 ], [ -117.045315, 33.051263 ], [ -117.042762, 33.052396 ], [ -117.039411, 33.052711 ], [ -117.037722, 33.05388 ], [ -117.035065, 33.056408 ], [ -117.032991, 33.056681 ], [ -117.031045, 33.057847 ], [ -117.030149, 33.059026 ], [ -117.02999, 33.061892 ], [ -117.029507, 33.062136 ], [ -117.027742, 33.062116 ], [ -117.027015, 33.063596 ], [ -117.02449, 33.062541 ], [ -117.023265, 33.062551 ], [ -117.022181, 33.063489 ], [ -117.020822, 33.06282 ], [ -117.020174, 33.063755 ], [ -117.017977, 33.065061 ], [ -117.014889, 33.065468 ], [ -117.014054, 33.066375 ], [ -117.000452, 33.066232 ], [ -116.999559, 33.06738 ], [ -116.996736, 33.068253 ], [ -116.994755, 33.067894 ], [ -116.99318, 33.067179 ], [ -116.992148, 33.067356 ], [ -116.991189, 33.0671 ], [ -116.983702, 33.066964 ], [ -116.982324, 33.06532 ], [ -116.982021, 33.063748 ], [ -116.98071, 33.063353 ], [ -116.980026, 33.062547 ], [ -116.978574, 33.06238 ], [ -116.977538, 33.061408 ], [ -116.973699, 33.058975 ], [ -116.972979, 33.057853 ], [ -116.971537, 33.057106 ], [ -116.971025, 33.056482 ], [ -116.970112, 33.051918 ], [ -116.970668, 33.048689 ], [ -116.971221, 33.047184 ], [ -116.97381, 33.045066 ], [ -116.974125, 33.044433 ], [ -116.971436, 33.042848 ], [ -116.971342, 33.041653 ], [ -116.972383, 33.040406 ], [ -116.970975, 33.039527 ], [ -116.971321, 33.038707 ], [ -116.97099, 33.038474 ], [ -116.971517, 33.037682 ], [ -116.971381, 33.037061 ], [ -116.973562, 33.03639 ], [ -116.973926, 33.035009 ], [ -116.973987, 33.031807 ], [ -116.972273, 33.030175 ], [ -116.969826, 33.029779 ], [ -116.965999, 33.031098 ], [ -116.964596, 33.032013 ], [ -116.958716, 33.03314 ], [ -116.957509, 33.02978 ], [ -116.957071, 33.026428 ], [ -116.954915, 33.022965 ], [ -116.953322, 33.018787 ], [ -116.953153, 33.013105 ], [ -116.952848, 33.01233 ], [ -116.953664, 33.011936 ], [ -116.954336, 33.011084 ], [ -116.95619, 33.005554 ], [ -116.957757, 33.003168 ], [ -116.958333, 33.000078 ], [ -116.959149, 32.999117 ], [ -116.961056, 32.998455 ], [ -116.965443, 32.997808 ], [ -116.967811, 32.996933 ], [ -116.971586, 32.99621 ], [ -116.975195, 32.995109 ], [ -116.978393, 32.992836 ], [ -116.979208, 32.991263 ], [ -116.979356, 32.989745 ], [ -116.978778, 32.988502 ], [ -116.976284, 32.986749 ], [ -116.975274, 32.985427 ], [ -116.971606, 32.973094 ], [ -116.970117, 32.97056 ], [ -116.970145, 32.969376 ], [ -116.972467, 32.962427 ], [ -116.97218, 32.959851 ], [ -116.967518, 32.952578 ], [ -116.962507, 32.945917 ], [ -116.961204, 32.94482 ], [ -116.957237, 32.942786 ], [ -116.956189, 32.94165 ], [ -116.955883, 32.940077 ], [ -116.959833, 32.941544 ], [ -116.961512, 32.941575 ], [ -116.962763, 32.943154 ], [ -116.965493, 32.943787 ], [ -116.965831, 32.94522 ], [ -116.966698, 32.946053 ], [ -116.967433, 32.94576 ], [ -116.968509, 32.944662 ], [ -116.970613, 32.944362 ], [ -116.971861, 32.944757 ], [ -116.974308, 32.94363 ], [ -116.977756, 32.943281 ], [ -116.978501, 32.942785 ], [ -116.980313, 32.942619 ], [ -116.980807, 32.942085 ], [ -116.981981, 32.942626 ], [ -116.983363, 32.942532 ], [ -116.98532, 32.942864 ], [ -116.9903, 32.942376 ], [ -116.995924, 32.942311 ], [ -116.997863, 32.943107 ], [ -116.999278, 32.944197 ], [ -117.000858, 32.944729 ], [ -117.001152, 32.944381 ], [ -117.007828, 32.942125 ], [ -117.008443, 32.941607 ], [ -117.010478, 32.941355 ], [ -117.010529, 32.940451 ], [ -117.012532, 32.938822 ], [ -117.012979, 32.937319 ], [ -117.014952, 32.937133 ], [ -117.017687, 32.934525 ], [ -117.026128, 32.931928 ], [ -117.027903, 32.930803 ], [ -117.029852, 32.930448 ], [ -117.033041, 32.929098 ], [ -117.033954, 32.928021 ], [ -117.036521, 32.92792 ], [ -117.037457, 32.927253 ], [ -117.044165, 32.927654 ], [ -117.046507, 32.927158 ], [ -117.048208, 32.927801 ], [ -117.050184, 32.927593 ], [ -117.055541, 32.929001 ], [ -117.056123, 32.928359 ], [ -117.05592, 32.927192 ], [ -117.056176, 32.926036 ], [ -117.057981, 32.923931 ], [ -117.059943, 32.922568 ], [ -117.062713, 32.921767 ], [ -117.063045, 32.920386 ], [ -117.064053, 32.919223 ], [ -117.067191, 32.917797 ], [ -117.069288, 32.916063 ], [ -117.070982, 32.91517 ], [ -117.075508, 32.908421 ], [ -117.079083, 32.906333 ], [ -117.08346, 32.905464 ], [ -117.089177, 32.903571 ], [ -117.092202, 32.902145 ], [ -117.095505, 32.901144 ], [ -117.099999, 32.898646 ], [ -117.10705, 32.896027 ], [ -117.108927, 32.894582 ], [ -117.109773, 32.894277 ], [ -117.109867, 32.89109 ], [ -117.105617, 32.891101 ], [ -117.105426, 32.887448 ], [ -117.095763, 32.887442 ], [ -117.095906, 32.889269 ], [ -117.0916, 32.889257 ], [ -117.091797, 32.891081 ], [ -117.088605, 32.891102 ], [ -117.088547, 32.892651 ], [ -117.086409, 32.892913 ], [ -117.086348, 32.894512 ], [ -117.084274, 32.894692 ], [ -117.084197, 32.896527 ], [ -117.075359, 32.89657 ], [ -117.07534, 32.898427 ], [ -117.066772, 32.898523 ], [ -117.066796, 32.900336 ], [ -117.06585, 32.899991 ], [ -117.062541, 32.899942 ], [ -117.061956, 32.901992 ], [ -117.057369, 32.902077 ], [ -117.059642, 32.89509 ], [ -117.070343, 32.887545 ], [ -117.053269, 32.887266 ], [ -117.052903, 32.855171 ], [ -117.051642, 32.853195 ], [ -117.061258, 32.854551 ], [ -117.063779, 32.854481 ], [ -117.066488, 32.853979 ], [ -117.070729, 32.852123 ], [ -117.078591, 32.846113 ], [ -117.081457, 32.844501 ], [ -117.084382, 32.843495 ], [ -117.094093, 32.841328 ], [ -117.096618, 32.841119 ], [ -117.113805, 32.841774 ], [ -117.120926, 32.841647 ], [ -117.121149, 32.840549 ], [ -117.120955, 32.837778 ], [ -117.119004, 32.83294 ], [ -117.115318, 32.81646 ], [ -117.112624, 32.799338 ], [ -117.112198, 32.795286 ], [ -117.112329, 32.793431 ], [ -117.11421, 32.78778 ], [ -117.114558, 32.785474 ], [ -117.112508, 32.778519 ], [ -117.104432, 32.778695 ], [ -117.093455, 32.780286 ], [ -117.087456, 32.780631 ], [ -117.074492, 32.779196 ], [ -117.064031, 32.779482 ], [ -117.058352, 32.778036 ], [ -117.051675, 32.776762 ], [ -117.048814, 32.775739 ], [ -117.048602, 32.774257 ], [ -117.046485, 32.773488 ], [ -117.047023, 32.770842 ], [ -117.040377, 32.770953 ], [ -117.040357, 32.771374 ], [ -117.039909, 32.77138 ], [ -117.039642, 32.770355 ], [ -117.038992, 32.770355 ], [ -117.038953, 32.768849 ], [ -117.040424, 32.768826 ], [ -117.040398, 32.767743 ], [ -117.045602, 32.767647 ], [ -117.045584, 32.766006 ], [ -117.051133, 32.766014 ], [ -117.05116, 32.763249 ], [ -117.053353, 32.763268 ], [ -117.053973, 32.755326 ], [ -117.049132, 32.755187 ], [ -117.049281, 32.743582 ], [ -117.05127, 32.742462 ], [ -117.049735, 32.740938 ], [ -117.053224, 32.738007 ], [ -117.05504, 32.735486 ], [ -117.05642, 32.734389 ], [ -117.053172, 32.733783 ], [ -117.052012, 32.733817 ], [ -117.050286, 32.734941 ], [ -117.049357, 32.735144 ], [ -117.049294, 32.712092 ], [ -117.038045, 32.712158 ], [ -117.036358, 32.712927 ], [ -117.0333, 32.715119 ], [ -117.027256, 32.716988 ], [ -117.025868, 32.717786 ], [ -117.025865, 32.718542 ], [ -117.021909, 32.718297 ], [ -117.019149, 32.715711 ], [ -117.017931, 32.715013 ], [ -117.016567, 32.714741 ], [ -117.012722, 32.714772 ], [ -117.012538, 32.71143 ], [ -117.010335, 32.7053 ], [ -117.011113, 32.704286 ], [ -117.011598, 32.700404 ], [ -117.014075, 32.695356 ], [ -117.016908, 32.691858 ], [ -117.02134, 32.688098 ], [ -117.03555, 32.677571 ], [ -117.039355, 32.673356 ], [ -117.039089, 32.673008 ], [ -117.040552, 32.671828 ], [ -117.05056, 32.666384 ], [ -117.053634, 32.665037 ], [ -117.057379, 32.664019 ], [ -117.061256, 32.663674 ], [ -117.065428, 32.662415 ], [ -117.072835, 32.681556 ], [ -117.064651, 32.683839 ], [ -117.065986, 32.687328 ], [ -117.06397, 32.687883 ], [ -117.06536, 32.691352 ], [ -117.075514, 32.688475 ], [ -117.076648, 32.691917 ], [ -117.077831, 32.69159 ], [ -117.07847, 32.693191 ], [ -117.079606, 32.692727 ], [ -117.081342, 32.693292 ], [ -117.083651, 32.692829 ], [ -117.085132, 32.692365 ], [ -117.085134, 32.691896 ], [ -117.087267, 32.691903 ], [ -117.087268, 32.69132 ], [ -117.090461, 32.691314 ], [ -117.091039, 32.692075 ], [ -117.093773, 32.692164 ], [ -117.09403, 32.690086 ], [ -117.095299, 32.688959 ], [ -117.096034, 32.688965 ], [ -117.096027, 32.688382 ], [ -117.098126, 32.688388 ], [ -117.098136, 32.688937 ], [ -117.102443, 32.688962 ], [ -117.101407, 32.685017 ], [ -117.121318, 32.679424 ], [ -117.124747, 32.679291 ], [ -117.123969, 32.678359 ], [ -117.126726, 32.677415 ], [ -117.133097, 32.677167 ], [ -117.135345, 32.678566 ], [ -117.137462, 32.678433 ], [ -117.133264, 32.675952 ], [ -117.13188, 32.669082 ], [ -117.129611, 32.666225 ], [ -117.125875, 32.643648 ], [ -117.12549, 32.64377 ], [ -117.125693, 32.644748 ], [ -117.12535, 32.645068 ], [ -117.123818, 32.64538 ], [ -117.117681, 32.607534 ], [ -117.119807, 32.606978 ], [ -117.119531, 32.605269 ], [ -117.116823, 32.605284 ], [ -117.114876, 32.594202 ], [ -117.114988, 32.593796 ], [ -117.118259, 32.591496 ], [ -117.116992, 32.591415 ], [ -117.117046, 32.591184 ], [ -117.118582, 32.591261 ], [ -117.118919, 32.591023 ], [ -117.119448, 32.588353 ], [ -117.120387, 32.587283 ], [ -117.12146, 32.58711 ], [ -117.122199, 32.588834 ], [ -117.131689, 32.585592 ], [ -117.135263, 32.585616 ], [ -117.135234, 32.584044 ] ], [ [ -117.227888, 32.721359 ], [ -117.222578, 32.718242 ], [ -117.220933, 32.719744 ], [ -117.220515, 32.719732 ], [ -117.220204, 32.71937 ], [ -117.220412, 32.718072 ], [ -117.22261, 32.715487 ], [ -117.223065, 32.71579 ], [ -117.223663, 32.715069 ], [ -117.228144, 32.712087 ], [ -117.231258, 32.709029 ], [ -117.233163, 32.708044 ], [ -117.234809, 32.70796 ], [ -117.2349, 32.708703 ], [ -117.234289, 32.709176 ], [ -117.232345, 32.709611 ], [ -117.229764, 32.712175 ], [ -117.224204, 32.71662 ], [ -117.224797, 32.718396 ], [ -117.227295, 32.719924 ], [ -117.227627, 32.719896 ], [ -117.229259, 32.717817 ], [ -117.231302, 32.718844 ], [ -117.234541, 32.717386 ], [ -117.235438, 32.716242 ], [ -117.236146, 32.714256 ], [ -117.235333, 32.713982 ], [ -117.233733, 32.715159 ], [ -117.233304, 32.714989 ], [ -117.236054, 32.712623 ], [ -117.236549, 32.711797 ], [ -117.235835, 32.711146 ], [ -117.237041, 32.709912 ], [ -117.236991, 32.708056 ], [ -117.237771, 32.70786 ], [ -117.246255, 32.708022 ], [ -117.247358, 32.707662 ], [ -117.254841, 32.707878 ], [ -117.255513, 32.707538 ], [ -117.255289, 32.709079 ], [ -117.256232, 32.711836 ], [ -117.256264, 32.713244 ], [ -117.25896, 32.713236 ], [ -117.257901, 32.707711 ], [ -117.257683, 32.699165 ], [ -117.256591, 32.695673 ], [ -117.2567, 32.694294 ], [ -117.255717, 32.692915 ], [ -117.255827, 32.691814 ], [ -117.25266, 32.688046 ], [ -117.252442, 32.682899 ], [ -117.248402, 32.6727 ], [ -117.248075, 32.669024 ], [ -117.24742, 32.666635 ], [ -117.245564, 32.663787 ], [ -117.242397, 32.66296 ], [ -117.237812, 32.664063 ], [ -117.235519, 32.666083 ], [ -117.234209, 32.670219 ], [ -117.234134, 32.671433 ], [ -117.236187, 32.671355 ], [ -117.223715, 32.683196 ], [ -117.223781, 32.684923 ], [ -117.224126, 32.685423 ], [ -117.225232, 32.68622 ], [ -117.226644, 32.686128 ], [ -117.22758, 32.686606 ], [ -117.227894, 32.69336 ], [ -117.227568, 32.697551 ], [ -117.226468, 32.701651 ], [ -117.223668, 32.705551 ], [ -117.217468, 32.711351 ], [ -117.214168, 32.713051 ], [ -117.206968, 32.715551 ], [ -117.202468, 32.716151 ], [ -117.199567, 32.716251 ], [ -117.195067, 32.715551 ], [ -117.192052, 32.714981 ], [ -117.187367, 32.712551 ], [ -117.187067, 32.711351 ], [ -117.189674, 32.706931 ], [ -117.189167, 32.706551 ], [ -117.180867, 32.704051 ], [ -117.178966, 32.702651 ], [ -117.173394, 32.701359 ], [ -117.173161, 32.701746 ], [ -117.172829, 32.701467 ], [ -117.160977, 32.703983 ], [ -117.167293, 32.708408 ], [ -117.169179, 32.708441 ], [ -117.170609, 32.708027 ], [ -117.17063, 32.708463 ], [ -117.171319, 32.708469 ], [ -117.172067, 32.709184 ], [ -117.172769, 32.711004 ], [ -117.173251, 32.711021 ], [ -117.172932, 32.711362 ], [ -117.173127, 32.711818 ], [ -117.174018, 32.711571 ], [ -117.173192, 32.711978 ], [ -117.173361, 32.712374 ], [ -117.175527, 32.711274 ], [ -117.174461, 32.709883 ], [ -117.175722, 32.711192 ], [ -117.175722, 32.713078 ], [ -117.17554, 32.712907 ], [ -117.174577, 32.713199 ], [ -117.173576, 32.712648 ], [ -117.173445, 32.713847 ], [ -117.176639, 32.714024 ], [ -117.176646, 32.714838 ], [ -117.173445, 32.714815 ], [ -117.173445, 32.715453 ], [ -117.176665, 32.715453 ], [ -117.176665, 32.715921 ], [ -117.173445, 32.715899 ], [ -117.173452, 32.716135 ], [ -117.173907, 32.716152 ], [ -117.173452, 32.716393 ], [ -117.173452, 32.716762 ], [ -117.176659, 32.71679 ], [ -117.176665, 32.717945 ], [ -117.173458, 32.717988 ], [ -117.173464, 32.719132 ], [ -117.173815, 32.71916 ], [ -117.173835, 32.719605 ], [ -117.173477, 32.719704 ], [ -117.173457, 32.723735 ], [ -117.17388, 32.725208 ], [ -117.174563, 32.72605 ], [ -117.176722, 32.727243 ], [ -117.178479, 32.727359 ], [ -117.179891, 32.727106 ], [ -117.180834, 32.725528 ], [ -117.184894, 32.726886 ], [ -117.184477, 32.728047 ], [ -117.185226, 32.728366 ], [ -117.186449, 32.728316 ], [ -117.187307, 32.727541 ], [ -117.188251, 32.727205 ], [ -117.188387, 32.726853 ], [ -117.189767, 32.727205 ], [ -117.195232, 32.727552 ], [ -117.195466, 32.727321 ], [ -117.195544, 32.726452 ], [ -117.194789, 32.725803 ], [ -117.188003, 32.724857 ], [ -117.187776, 32.724269 ], [ -117.188335, 32.723928 ], [ -117.197202, 32.724879 ], [ -117.20039, 32.724967 ], [ -117.208158, 32.72457 ], [ -117.213141, 32.723716 ], [ -117.213994, 32.724203 ], [ -117.213948, 32.724651 ], [ -117.213551, 32.724871 ], [ -117.205588, 32.725901 ], [ -117.199109, 32.72599 ], [ -117.198647, 32.726605 ], [ -117.198549, 32.727568 ], [ -117.199083, 32.728277 ], [ -117.200078, 32.728718 ], [ -117.206708, 32.728645 ], [ -117.213461, 32.728027 ], [ -117.213936, 32.728082 ], [ -117.213962, 32.728408 ], [ -117.215307, 32.728125 ], [ -117.215796, 32.72734 ], [ -117.217232, 32.722362 ], [ -117.217863, 32.721796 ], [ -117.218956, 32.722049 ], [ -117.224181, 32.724753 ], [ -117.226257, 32.724791 ], [ -117.226979, 32.724471 ], [ -117.227726, 32.723432 ], [ -117.227888, 32.721359 ] ] ] } },
{ "type": "Feature", "properties": { "county_region_id": "north_county", "county_region": "North County", "tract_geoid": "06073017031", "puma_code": "7326" }, "geometry": { "type": "Polygon", "coordinates": [ [ [ -117.230597, 32.982686 ], [ -117.231961, 32.982455 ], [ -117.233991, 32.981467 ], [ -117.235637, 32.981067 ], [ -117.240534, 32.980741 ], [ -117.246446, 32.98129 ], [ -117.256815, 32.979366 ], [ -117.261595, 32.980431 ], [ -117.270313, 32.980063 ], [ -117.272333, 32.980132 ], [ -117.272487, 32.980508 ], [ -117.27387, 32.980544 ], [ -117.27677, 32.995243 ], [ -117.279569, 32.999435 ], [ -117.280535, 33.006743 ], [ -117.281647, 33.010042 ], [ -117.28367, 33.015043 ], [ -117.29057, 33.029242 ], [ -117.297456, 33.036297 ], [ -117.30057, 33.048041 ], [ -117.314565, 33.082329 ], [ -117.316757, 33.091802 ], [ -117.345771, 33.144138 ], [ -117.366972, 33.172237 ], [ -117.370572, 33.176036 ], [ -117.376955, 33.181381 ], [ -117.389428, 33.194085 ], [ -117.392534, 33.198179 ], [ -117.397891, 33.203182 ], [ -117.40022, 33.203702 ], [ -117.40286, 33.202012 ], [ -117.405861, 33.204628 ], [ -117.408263, 33.20772 ], [ -117.408633, 33.210037 ], [ -117.408448, 33.215138 ], [ -117.410665, 33.218538 ], [ -117.440966, 33.255937 ], [ -117.441265, 33.256815 ], [ -117.467957, 33.288502 ], [ -117.48774, 33.311065 ], [ -117.501606, 33.324201 ], [ -117.503027, 33.326155 ], [ -117.508291, 33.331018 ], [ -117.550512, 33.362913 ], [ -117.552147, 33.363444 ], [ -117.560958, 33.367919 ], [ -117.564773, 33.369134 ], [ -117.56777, 33.370728 ], [ -117.569678, 33.372017 ], [ -117.571585, 33.373914 ], [ -117.571743, 33.374816 ], [ -117.572736, 33.37641 ], [ -117.574111, 33.377271 ], [ -117.57648, 33.378452 ], [ -117.581446, 33.379089 ], [ -117.583318, 33.379855 ], [ -117.589048, 33.380462 ], [ -117.590805, 33.381164 ], [ -117.596554, 33.384377 ], [ -117.596084, 33.385945 ], [ -117.596085, 33.387472 ], [ -117.578513, 33.453806 ], [ -117.55984, 33.451388 ], [ -117.538174, 33.454876 ], [ -117.509499, 33.470268 ], [ -117.509381, 33.484094 ], [ -117.490463, 33.501225 ], [ -117.487673, 33.503344 ], [ -117.482715, 33.500145 ], [ -117.483669, 33.497521 ], [ -117.478288, 33.494811 ], [ -117.471912, 33.487854 ], [ -117.47541, 33.47021 ], [ -117.472088, 33.470541 ], [ -117.469899, 33.471248 ], [ -117.468804, 33.472768 ], [ -117.466733, 33.473666 ], [ -117.466157, 33.474521 ], [ -117.466207, 33.476132 ], [ -117.465803, 33.47675 ], [ -117.465113, 33.477271 ], [ -117.464421, 33.477172 ], [ -117.460841, 33.476145 ], [ -117.457956, 33.475698 ], [ -117.434274, 33.468134 ], [ -117.407755, 33.460144 ], [ -117.400522, 33.455783 ], [ -117.397429, 33.444634 ], [ -117.363525, 33.44468 ], [ -117.363418, 33.430152 ], [ -117.344208, 33.430517 ], [ -117.340645, 33.430828 ], [ -117.339627, 33.430513 ], [ -117.335025, 33.430672 ], [ -117.33505, 33.427023 ], [ -117.339519, 33.426904 ], [ -117.339376, 33.420117 ], [ -117.330689, 33.420024 ], [ -117.330622, 33.423507 ], [ -117.326377, 33.423507 ], [ -117.326511, 33.416654 ], [ -117.32449, 33.416542 ], [ -117.324692, 33.41306 ], [ -117.323055, 33.413088 ], [ -117.323147, 33.416521 ], [ -117.317976, 33.416576 ], [ -117.318003, 33.412972 ], [ -117.313556, 33.412851 ], [ -117.313489, 33.407856 ], [ -117.295261, 33.417839 ], [ -117.27431, 33.407385 ], [ -117.262158, 33.4064 ], [ -117.255252, 33.406456 ], [ -117.257368, 33.39163 ], [ -117.258169, 33.388446 ], [ -117.26208, 33.358293 ], [ -117.253841, 33.358224 ], [ -117.253498, 33.339755 ], [ -117.249399, 33.339599 ], [ -117.249243, 33.328929 ], [ -117.26008, 33.329205 ], [ -117.26008, 33.321853 ], [ -117.249204, 33.321834 ], [ -117.249071, 33.313269 ], [ -117.248149, 33.311164 ], [ -117.245561, 33.307481 ], [ -117.244806, 33.304557 ], [ -117.242504, 33.302752 ], [ -117.242116, 33.300093 ], [ -117.242925, 33.297014 ], [ -117.242715, 33.295759 ], [ -117.24318, 33.293717 ], [ -117.241476, 33.29268 ], [ -117.242372, 33.290109 ], [ -117.242486, 33.288211 ], [ -117.24455, 33.286599 ], [ -117.244769, 33.285987 ], [ -117.246115, 33.284648 ], [ -117.246221, 33.28399 ], [ -117.246918, 33.283357 ], [ -117.247214, 33.282537 ], [ -117.246478, 33.282054 ], [ -117.247543, 33.28113 ], [ -117.246779, 33.280851 ], [ -117.247048, 33.27999 ], [ -117.246647, 33.279748 ], [ -117.246466, 33.279047 ], [ -117.245648, 33.279053 ], [ -117.245832, 33.278035 ], [ -117.244988, 33.278007 ], [ -117.244964, 33.267082 ], [ -117.244038, 33.267085 ], [ -117.241525, 33.2685 ], [ -117.238146, 33.267796 ], [ -117.236937, 33.26728 ], [ -117.237153, 33.265551 ], [ -117.236397, 33.259666 ], [ -117.235424, 33.260087 ], [ -117.233207, 33.265636 ], [ -117.233058, 33.267286 ], [ -117.230728, 33.267283 ], [ -117.228768, 33.266717 ], [ -117.223936, 33.263517 ], [ -117.222031, 33.263371 ], [ -117.218444, 33.261976 ], [ -117.217453, 33.261173 ], [ -117.214993, 33.260597 ], [ -117.21259, 33.25871 ], [ -117.212862, 33.256915 ], [ -117.209325, 33.255964 ], [ -117.207156, 33.254427 ], [ -117.201367, 33.252814 ], [ -117.19893, 33.252781 ], [ -117.19529, 33.252279 ], [ -117.190115, 33.253167 ], [ -117.18511, 33.252471 ], [ -117.181267, 33.253527 ], [ -117.180097, 33.253599 ], [ -117.178355, 33.253236 ], [ -117.175564, 33.251795 ], [ -117.173499, 33.251445 ], [ -117.168509, 33.251897 ], [ -117.163203, 33.253129 ], [ -117.158768, 33.25324 ], [ -117.156184, 33.252933 ], [ -117.142333, 33.221193 ], [ -117.139431, 33.21662 ], [ -117.129645, 33.203323 ], [ -117.125917, 33.19719 ], [ -117.123351, 33.198446 ], [ -117.119793, 33.199258 ], [ -117.118987, 33.200018 ], [ -117.118516, 33.201458 ], [ -117.11783, 33.202266 ], [ -117.11641, 33.203149 ], [ -117.111557, 33.204859 ], [ -117.108089, 33.210668 ], [ -117.108604, 33.211638 ], [ -117.101233, 33.211986 ], [ -117.099316, 33.212715 ], [ -117.100374, 33.210943 ], [ -117.102148, 33.209625 ], [ -117.096716, 33.208619 ], [ -117.093966, 33.208759 ], [ -117.092267, 33.209622 ], [ -117.08965, 33.208651 ], [ -117.088991, 33.212029 ], [ -117.086383, 33.210481 ], [ -117.08578, 33.210494 ], [ -117.088122, 33.213126 ], [ -117.086988, 33.215776 ], [ -117.083408, 33.215122 ], [ -117.081741, 33.215463 ], [ -117.077656, 33.213968 ], [ -117.072727, 33.214857 ], [ -117.072294, 33.211322 ], [ -117.063345, 33.211601 ], [ -117.061067, 33.210879 ], [ -117.057462, 33.2109 ], [ -117.055133, 33.21016 ], [ -117.053355, 33.210638 ], [ -117.051193, 33.210773 ], [ -117.049835, 33.211429 ], [ -117.037287, 33.211096 ], [ -117.037123, 33.20999 ], [ -117.033573, 33.209991 ], [ -117.033259, 33.205931 ], [ -117.032815, 33.204308 ], [ -117.031478, 33.201779 ], [ -117.030847, 33.199683 ], [ -117.030884, 33.19841 ], [ -117.030165, 33.198439 ], [ -117.029753, 33.199044 ], [ -117.029126, 33.19928 ], [ -117.028227, 33.198579 ], [ -117.028024, 33.198049 ], [ -117.027851, 33.198843 ], [ -117.019802, 33.20049 ], [ -117.00661, 33.199933 ], [ -116.994434, 33.198443 ], [ -116.990216, 33.198438 ], [ -116.989132, 33.198003 ], [ -116.980258, 33.197903 ], [ -116.980331, 33.190463 ], [ -116.98476, 33.19043 ], [ -116.984773, 33.183225 ], [ -116.971221, 33.183321 ], [ -116.971772, 33.181232 ], [ -116.971525, 33.178115 ], [ -116.969578, 33.175213 ], [ -116.967728, 33.171416 ], [ -116.967142, 33.169016 ], [ -116.967267, 33.16786 ], [ -116.96687, 33.16736 ], [ -116.965267, 33.166953 ], [ -116.964507, 33.166184 ], [ -116.962866, 33.166672 ], [ -116.960774, 33.168865 ], [ -116.960179, 33.168718 ], [ -116.959191, 33.167801 ], [ -116.955799, 33.16661 ], [ -116.951329, 33.166953 ], [ -116.947725, 33.169873 ], [ -116.946882, 33.170052 ], [ -116.945278, 33.169819 ], [ -116.943169, 33.168493 ], [ -116.943815, 33.1649 ], [ -116.943293, 33.161614 ], [ -116.942373, 33.160395 ], [ -116.940511, 33.160356 ], [ -116.938461, 33.161687 ], [ -116.936334, 33.161332 ], [ -116.935716, 33.160867 ], [ -116.935505, 33.159391 ], [ -116.933461, 33.158343 ], [ -116.931774, 33.158262 ], [ -116.928836, 33.158488 ], [ -116.928308, 33.159004 ], [ -116.92607, 33.159464 ], [ -116.92383, 33.16074 ], [ -116.921886, 33.160694 ], [ -116.92139, 33.161384 ], [ -116.921047, 33.160935 ], [ -116.920183, 33.160841 ], [ -116.919675, 33.160446 ], [ -116.919474, 33.15665 ], [ -116.917674, 33.152697 ], [ -116.916803, 33.152177 ], [ -116.915131, 33.153715 ], [ -116.91375, 33.154243 ], [ -116.908589, 33.158163 ], [ -116.908195, 33.158735 ], [ -116.902241, 33.163034 ], [ -116.893145, 33.164136 ], [ -116.89337, 33.15746 ], [ -116.892648, 33.090201 ], [ -116.893438, 33.089936 ], [ -116.894423, 33.090126 ], [ -116.896727, 33.092156 ], [ -116.897284, 33.092103 ], [ -116.897543, 33.091332 ], [ -116.897284, 33.088849 ], [ -116.897948, 33.087761 ], [ -116.900244, 33.088101 ], [ -116.901297, 33.088586 ], [ -116.902464, 33.089803 ], [ -116.904173, 33.089078 ], [ -116.905638, 33.089913 ], [ -116.9065, 33.089947 ], [ -116.90856, 33.088631 ], [ -116.910491, 33.088509 ], [ -116.910582, 33.08743 ], [ -116.911757, 33.086316 ], [ -116.912848, 33.0863 ], [ -116.913771, 33.086831 ], [ -116.914382, 33.086686 ], [ -116.915007, 33.087018 ], [ -116.91587, 33.086873 ], [ -116.918029, 33.084851 ], [ -116.919402, 33.084897 ], [ -116.919562, 33.08397 ], [ -116.920364, 33.08336 ], [ -116.920581, 33.082805 ], [ -116.92115, 33.08304 ], [ -116.921399, 33.084386 ], [ -116.922886, 33.086019 ], [ -116.925332, 33.08572 ], [ -116.926963, 33.086643 ], [ -116.929512, 33.087404 ], [ -116.930185, 33.087139 ], [ -116.93055, 33.086216 ], [ -116.931156, 33.085895 ], [ -116.933405, 33.085735 ], [ -116.935552, 33.08622 ], [ -116.937164, 33.087559 ], [ -116.938091, 33.090335 ], [ -116.941693, 33.091395 ], [ -116.943383, 33.091023 ], [ -116.946248, 33.089518 ], [ -116.946689, 33.087781 ], [ -116.954946, 33.087737 ], [ -116.954903, 33.08602 ], [ -116.955756, 33.085411 ], [ -116.960528, 33.08476 ], [ -116.962838, 33.083896 ], [ -116.969325, 33.082571 ], [ -116.972484, 33.079996 ], [ -116.973727, 33.078192 ], [ -116.974616, 33.075273 ], [ -116.977721, 33.073694 ], [ -116.97429, 33.069832 ], [ -116.973504, 33.068127 ], [ -116.972627, 33.067227 ], [ -116.972375, 33.064897 ], [ -116.97149, 33.064221 ], [ -116.970963, 33.062738 ], [ -116.971175, 33.056733 ], [ -116.972979, 33.057853 ], [ -116.973699, 33.058975 ], [ -116.977538, 33.061408 ], [ -116.978574, 33.06238 ], [ -116.980026, 33.062547 ], [ -116.98071, 33.063353 ], [ -116.982021, 33.063748 ], [ -116.982324, 33.06532 ], [ -116.983702, 33.066964 ], [ -116.991189, 33.0671 ], [ -116.992148, 33.067356 ], [ -116.99318, 33.067179 ], [ -116.994755, 33.067894 ], [ -116.996736, 33.068253 ], [ -116.999559, 33.06738 ], [ -117.000452, 33.066232 ], [ -117.014054, 33.066375 ], [ -117.014889, 33.065468 ], [ -117.017977, 33.065061 ], [ -117.020174, 33.063755 ], [ -117.020822, 33.06282 ], [ -117.022181, 33.063489 ], [ -117.023265, 33.062551 ], [ -117.02449, 33.062541 ], [ -117.027015, 33.063596 ], [ -117.027742, 33.062116 ], [ -117.029507, 33.062136 ], [ -117.02999, 33.061892 ], [ -117.030149, 33.059026 ], [ -117.031045, 33.057847 ], [ -117.032991, 33.056681 ], [ -117.035065, 33.056408 ], [ -117.037722, 33.05388 ], [ -117.039411, 33.052711 ], [ -117.042762, 33.052396 ], [ -117.045315, 33.051263 ], [ -117.047855, 33.051576 ], [ -117.05119, 33.051374 ], [ -117.052771, 33.051996 ], [ -117.056438, 33.052674 ], [ -117.058068, 33.053415 ], [ -117.061437, 33.053938 ], [ -117.064238, 33.053835 ], [ -117.065738, 33.053027 ], [ -117.067129, 33.052909 ], [ -117.068533, 33.054322 ], [ -117.070436, 33.055513 ], [ -117.071694, 33.055927 ], [ -117.073084, 33.051596 ], [ -117.073253, 33.044638 ], [ -117.078175, 33.033006 ], [ -117.078879, 33.030496 ], [ -117.079189, 33.020889 ], [ -117.080819, 33.006289 ], [ -117.083448, 32.997941 ], [ -117.083961, 32.994987 ], [ -117.083738, 32.991969 ], [ -117.082942, 32.988191 ], [ -117.083385, 32.984586 ], [ -117.084188, 32.982786 ], [ -117.096083, 32.963837 ], [ -117.100259, 32.958001 ], [ -117.100479, 32.956826 ], [ -117.102241, 32.953776 ], [ -117.108555, 32.944319 ], [ -117.112221, 32.944622 ], [ -117.11235, 32.943192 ], [ -117.112728, 32.9429 ], [ -117.115846, 32.943179 ], [ -117.116714, 32.94391 ], [ -117.118377, 32.94424 ], [ -117.120704, 32.942308 ], [ -117.122256, 32.942104 ], [ -117.124446, 32.940574 ], [ -117.128927, 32.940029 ], [ -117.130121, 32.943963 ], [ -117.129752, 32.948906 ], [ -117.130339, 32.95146 ], [ -117.129891, 32.955437 ], [ -117.129222, 32.956754 ], [ -117.126694, 32.958861 ], [ -117.126268, 32.960418 ], [ -117.126652, 32.963281 ], [ -117.128388, 32.965423 ], [ -117.129197, 32.968402 ], [ -117.131798, 32.97224 ], [ -117.130969, 32.976374 ], [ -117.13094, 32.982491 ], [ -117.132949, 32.982253 ], [ -117.133599, 32.982641 ], [ -117.134372, 32.982091 ], [ -117.135212, 32.982452 ], [ -117.136058, 32.981249 ], [ -117.137324, 32.98022 ], [ -117.140441, 32.97873 ], [ -117.144722, 32.977202 ], [ -117.151197, 32.972166 ], [ -117.152804, 32.971328 ], [ -117.154586, 32.970918 ], [ -117.162039, 32.970546 ], [ -117.165889, 32.969817 ], [ -117.169488, 32.97022 ], [ -117.174374, 32.969974 ], [ -117.174656, 32.97033 ], [ -117.17851, 32.970295 ], [ -117.178515, 32.973925 ], [ -117.20016, 32.973989 ], [ -117.200256, 32.977596 ], [ -117.203214, 32.977579 ], [ -117.20448, 32.97881 ], [ -117.202852, 32.980092 ], [ -117.205647, 32.980767 ], [ -117.206472, 32.979348 ], [ -117.211018, 32.976366 ], [ -117.215752, 32.974591 ], [ -117.218125, 32.974459 ], [ -117.220875, 32.975313 ], [ -117.224728, 32.975567 ], [ -117.227253, 32.975061 ], [ -117.229539, 32.975022 ], [ -117.231106, 32.975704 ], [ -117.23037, 32.977427 ], [ -117.230597, 32.982686 ] ] ] } },
{ "type": "Feature", "properties": { "county_region_id": "south_san_diego", "county_region": "South San Diego", "tract_geoid": "06073010402", "puma_code": "7322" }, "geometry": { "type": "Polygon", "coordinates": [ [ [ -116.757296, 32.565507 ], [ -117.12607, 32.534189 ], [ -117.130963, 32.554956 ], [ -117.132463, 32.556456 ], [ -117.133963, 32.559655 ], [ -117.134963, 32.563255 ], [ -117.134763, 32.576855 ], [ -117.134263, 32.584055 ], [ -117.135234, 32.584044 ], [ -117.135263, 32.585616 ], [ -117.131689, 32.585592 ], [ -117.122199, 32.588834 ], [ -117.12146, 32.58711 ], [ -117.120387, 32.587283 ], [ -117.119448, 32.588353 ], [ -117.118919, 32.591023 ], [ -117.118582, 32.591261 ], [ -117.117046, 32.591184 ], [ -117.116992, 32.591415 ], [ -117.118259, 32.591496 ], [ -117.114988, 32.593796 ], [ -117.114876, 32.594202 ], [ -117.116823, 32.605284 ], [ -117.119531, 32.605269 ], [ -117.119807, 32.606978 ], [ -117.117681, 32.607534 ], [ -117.123818, 32.64538 ], [ -117.12535, 32.645068 ], [ -117.125693, 32.644748 ], [ -117.12549, 32.64377 ], [ -117.125875, 32.643648 ], [ -117.129611, 32.666225 ], [ -117.13188, 32.669082 ], [ -117.133264, 32.675952 ], [ -117.137462, 32.678433 ], [ -117.135345, 32.678566 ], [ -117.133097, 32.677167 ], [ -117.126726, 32.677415 ], [ -117.123969, 32.678359 ], [ -117.124747, 32.679291 ], [ -117.121318, 32.679424 ], [ -117.101407, 32.685017 ], [ -117.102443, 32.688962 ], [ -117.098136, 32.688937 ], [ -117.098126, 32.688388 ], [ -117.096027, 32.688382 ], [ -117.096034, 32.688965 ], [ -117.095299, 32.688959 ], [ -117.09403, 32.690086 ], [ -117.093773, 32.692164 ], [ -117.091039, 32.692075 ], [ -117.090461, 32.691314 ], [ -117.087268, 32.69132 ], [ -117.087267, 32.691903 ], [ -117.085134, 32.691896 ], [ -117.085132, 32.692365 ], [ -117.083651, 32.692829 ], [ -117.081342, 32.693292 ], [ -117.079606, 32.692727 ], [ -117.07847, 32.693191 ], [ -117.077831, 32.69159 ], [ -117.076648, 32.691917 ], [ -117.075514, 32.688475 ], [ -117.06536, 32.691352 ], [ -117.06397, 32.687883 ], [ -117.065986, 32.687328 ], [ -117.064651, 32.683839 ], [ -117.072835, 32.681556 ], [ -117.065428, 32.662415 ], [ -117.061256, 32.663674 ], [ -117.055756, 32.664398 ], [ -117.052659, 32.665408 ], [ -117.040187, 32.672091 ], [ -117.039089, 32.673008 ], [ -117.039355, 32.673356 ], [ -117.03555, 32.677571 ], [ -117.02134, 32.688098 ], [ -117.015531, 32.693261 ], [ -117.01215, 32.698968 ], [ -117.011361, 32.701378 ], [ -117.011113, 32.704286 ], [ -117.010335, 32.7053 ], [ -117.012538, 32.71143 ], [ -117.012722, 32.714772 ], [ -117.016567, 32.714741 ], [ -117.017931, 32.715013 ], [ -117.019149, 32.715711 ], [ -117.021329, 32.717977 ], [ -117.022096, 32.718345 ], [ -117.025865, 32.718542 ], [ -117.025868, 32.717786 ], [ -117.027256, 32.716988 ], [ -117.0333, 32.715119 ], [ -117.036358, 32.712927 ], [ -117.038045, 32.712158 ], [ -117.049294, 32.712092 ], [ -117.049357, 32.735144 ], [ -117.050286, 32.734941 ], [ -117.052012, 32.733817 ], [ -117.053172, 32.733783 ], [ -117.05642, 32.734389 ], [ -117.05504, 32.735486 ], [ -117.053224, 32.738007 ], [ -117.049735, 32.740938 ], [ -117.050837, 32.742041 ], [ -117.047257, 32.744557 ], [ -117.045507, 32.744946 ], [ -117.037803, 32.744871 ], [ -117.03499, 32.745306 ], [ -117.028045, 32.747068 ], [ -117.026438, 32.74722 ], [ -117.021956, 32.746902 ], [ -117.019757, 32.747309 ], [ -117.01797, 32.74822 ], [ -117.004303, 32.759647 ], [ -117.004004, 32.759289 ], [ -117.003041, 32.760061 ], [ -117.00323, 32.759063 ], [ -117.002945, 32.758968 ], [ -117.002736, 32.759532 ], [ -117.002167, 32.759795 ], [ -117.002386, 32.760721 ], [ -117.002039, 32.761467 ], [ -117.000478, 32.760254 ], [ -116.998806, 32.760523 ], [ -116.996533, 32.759713 ], [ -116.995661, 32.759744 ], [ -116.993299, 32.760718 ], [ -116.991446, 32.763767 ], [ -116.990939, 32.764066 ], [ -116.989651, 32.763659 ], [ -116.988432, 32.763768 ], [ -116.986961, 32.762998 ], [ -116.985271, 32.76337 ], [ -116.983812, 32.762579 ], [ -116.982938, 32.762504 ], [ -116.978937, 32.764016 ], [ -116.976534, 32.76383 ], [ -116.972605, 32.764714 ], [ -116.972202, 32.76509 ], [ -116.972109, 32.766202 ], [ -116.9664, 32.765957 ], [ -116.965577, 32.765316 ], [ -116.962355, 32.764394 ], [ -116.959875, 32.764929 ], [ -116.959435, 32.764648 ], [ -116.95903, 32.763172 ], [ -116.956062, 32.763071 ], [ -116.954348, 32.762296 ], [ -116.942329, 32.762224 ], [ -116.94184, 32.762651 ], [ -116.940935, 32.768802 ], [ -116.940451, 32.769137 ], [ -116.938595, 32.769387 ], [ -116.93884, 32.771598 ], [ -116.935839, 32.771069 ], [ -116.931837, 32.769083 ], [ -116.927885, 32.768864 ], [ -116.927881, 32.762094 ], [ -116.921771, 32.762117 ], [ -116.92104, 32.76253 ], [ -116.920448, 32.762123 ], [ -116.910981, 32.762051 ], [ -116.907639, 32.760902 ], [ -116.906108, 32.759468 ], [ -116.902978, 32.757399 ], [ -116.897912, 32.759854 ], [ -116.894351, 32.760748 ], [ -116.893055, 32.761482 ], [ -116.890682, 32.762223 ], [ -116.888629, 32.764323 ], [ -116.88426, 32.765985 ], [ -116.88312, 32.766916 ], [ -116.882512, 32.769609 ], [ -116.883123, 32.770351 ], [ -116.885709, 32.771707 ], [ -116.886526, 32.772647 ], [ -116.888089, 32.776915 ], [ -116.887761, 32.780606 ], [ -116.889604, 32.783237 ], [ -116.88943, 32.784406 ], [ -116.888255, 32.786586 ], [ -116.888189, 32.78849 ], [ -116.88737, 32.788387 ], [ -116.885493, 32.786894 ], [ -116.883148, 32.785584 ], [ -116.877025, 32.782914 ], [ -116.873255, 32.780651 ], [ -116.869331, 32.779155 ], [ -116.867729, 32.779116 ], [ -116.865294, 32.780226 ], [ -116.861425, 32.780419 ], [ -116.858693, 32.781572 ], [ -116.856752, 32.782015 ], [ -116.854495, 32.781916 ], [ -116.85239, 32.781409 ], [ -116.851348, 32.774931 ], [ -116.850839, 32.774226 ], [ -116.849824, 32.773825 ], [ -116.847854, 32.773702 ], [ -116.847123, 32.772252 ], [ -116.847459, 32.768397 ], [ -116.849061, 32.766463 ], [ -116.850036, 32.765813 ], [ -116.847823, 32.763842 ], [ -116.844565, 32.763453 ], [ -116.843009, 32.763605 ], [ -116.841397, 32.764482 ], [ -116.840467, 32.765247 ], [ -116.840961, 32.765388 ], [ -116.840438, 32.765582 ], [ -116.834971, 32.765049 ], [ -116.833812, 32.765181 ], [ -116.832569, 32.765803 ], [ -116.831235, 32.767645 ], [ -116.831991, 32.769955 ], [ -116.828548, 32.772437 ], [ -116.825668, 32.7725 ], [ -116.81898, 32.771793 ], [ -116.816331, 32.770308 ], [ -116.814476, 32.770358 ], [ -116.812154, 32.771004 ], [ -116.811688, 32.770685 ], [ -116.810896, 32.771036 ], [ -116.810651, 32.771281 ], [ -116.811094, 32.771513 ], [ -116.809522, 32.772536 ], [ -116.807348, 32.772382 ], [ -116.806893, 32.772794 ], [ -116.80684, 32.774367 ], [ -116.805584, 32.774521 ], [ -116.803221, 32.774218 ], [ -116.803085, 32.773817 ], [ -116.803423, 32.773223 ], [ -116.803169, 32.772931 ], [ -116.801445, 32.772574 ], [ -116.800019, 32.771925 ], [ -116.798835, 32.772013 ], [ -116.798281, 32.772716 ], [ -116.796361, 32.772964 ], [ -116.793887, 32.773893 ], [ -116.793262, 32.774756 ], [ -116.792669, 32.777098 ], [ -116.791471, 32.778643 ], [ -116.791712, 32.779771 ], [ -116.792649, 32.780321 ], [ -116.793981, 32.7827 ], [ -116.793904, 32.783167 ], [ -116.792784, 32.7843 ], [ -116.790409, 32.785155 ], [ -116.788663, 32.785269 ], [ -116.783549, 32.786608 ], [ -116.780573, 32.786518 ], [ -116.777988, 32.785728 ], [ -116.775301, 32.785469 ], [ -116.774482, 32.786539 ], [ -116.773155, 32.787342 ], [ -116.768988, 32.78656 ], [ -116.765335, 32.786225 ], [ -116.764429, 32.786955 ], [ -116.759997, 32.794869 ], [ -116.759113, 32.794809 ], [ -116.75738, 32.793901 ], [ -116.756205, 32.79379 ], [ -116.750856, 32.791774 ], [ -116.750208, 32.793012 ], [ -116.747748, 32.793449 ], [ -116.745122, 32.795606 ], [ -116.742563, 32.7955 ], [ -116.739376, 32.794143 ], [ -116.737404, 32.793759 ], [ -116.736043, 32.79382 ], [ -116.735548, 32.793297 ], [ -116.734292, 32.79475 ], [ -116.731818, 32.795608 ], [ -116.730588, 32.79518 ], [ -116.729175, 32.795224 ], [ -116.728348, 32.794675 ], [ -116.727176, 32.794581 ], [ -116.725821, 32.793867 ], [ -116.722358, 32.79384 ], [ -116.719558, 32.7924 ], [ -116.718711, 32.791196 ], [ -116.717806, 32.791279 ], [ -116.714863, 32.790114 ], [ -116.713672, 32.790224 ], [ -116.712272, 32.789724 ], [ -116.711393, 32.78979 ], [ -116.70903, 32.788784 ], [ -116.708424, 32.787239 ], [ -116.708691, 32.786607 ], [ -116.708274, 32.785226 ], [ -116.708879, 32.783769 ], [ -116.709985, 32.782785 ], [ -116.709763, 32.781382 ], [ -116.708806, 32.780085 ], [ -116.708995, 32.778732 ], [ -116.709587, 32.778182 ], [ -116.709626, 32.777506 ], [ -116.708247, 32.776436 ], [ -116.708287, 32.775915 ], [ -116.710785, 32.776503 ], [ -116.712542, 32.777681 ], [ -116.714209, 32.7779 ], [ -116.708577, 32.774767 ], [ -116.705115, 32.771169 ], [ -116.704313, 32.770926 ], [ -116.701338, 32.770928 ], [ -116.698987, 32.770341 ], [ -116.69635, 32.768982 ], [ -116.693909, 32.766785 ], [ -116.688678, 32.764764 ], [ -116.683769, 32.764338 ], [ -116.679889, 32.76472 ], [ -116.67656, 32.764157 ], [ -116.675217, 32.764488 ], [ -116.674202, 32.762273 ], [ -116.674005, 32.759492 ], [ -116.675587, 32.757853 ], [ -116.675766, 32.755759 ], [ -116.674616, 32.753926 ], [ -116.673408, 32.75348 ], [ -116.672445, 32.752612 ], [ -116.671097, 32.752286 ], [ -116.67097, 32.750575 ], [ -116.669511, 32.749605 ], [ -116.668452, 32.749299 ], [ -116.668167, 32.74862 ], [ -116.668455, 32.747897 ], [ -116.669406, 32.747168 ], [ -116.668786, 32.746488 ], [ -116.669099, 32.745701 ], [ -116.670152, 32.745145 ], [ -116.670274, 32.744596 ], [ -116.66992, 32.74393 ], [ -116.670979, 32.744199 ], [ -116.672027, 32.744033 ], [ -116.672887, 32.743345 ], [ -116.673849, 32.743214 ], [ -116.677199, 32.737926 ], [ -116.678755, 32.734617 ], [ -116.679241, 32.73306 ], [ -116.678923, 32.732294 ], [ -116.68227, 32.728646 ], [ -116.682411, 32.727471 ], [ -116.681363, 32.724364 ], [ -116.680754, 32.724056 ], [ -116.679218, 32.724107 ], [ -116.678581, 32.723558 ], [ -116.677608, 32.721553 ], [ -116.678569, 32.719946 ], [ -116.678267, 32.71943 ], [ -116.679512, 32.718515 ], [ -116.676911, 32.717657 ], [ -116.676137, 32.716541 ], [ -116.67325, 32.715012 ], [ -116.672981, 32.714641 ], [ -116.673476, 32.714682 ], [ -116.672081, 32.711473 ], [ -116.673075, 32.704944 ], [ -116.673093, 32.702375 ], [ -116.673758, 32.701143 ], [ -116.67658, 32.699312 ], [ -116.676773, 32.69851 ], [ -116.67574, 32.696522 ], [ -116.67314, 32.6943 ], [ -116.672512, 32.69323 ], [ -116.672305, 32.690111 ], [ -116.669435, 32.682335 ], [ -116.669259, 32.681128 ], [ -116.669752, 32.678857 ], [ -116.670947, 32.678839 ], [ -116.671824, 32.67802 ], [ -116.67174, 32.677294 ], [ -116.673119, 32.671652 ], [ -116.675109, 32.668881 ], [ -116.676378, 32.664762 ], [ -116.679394, 32.661875 ], [ -116.679583, 32.660644 ], [ -116.680513, 32.659121 ], [ -116.68061, 32.656827 ], [ -116.67868, 32.654573 ], [ -116.678349, 32.65366 ], [ -116.680423, 32.648012 ], [ -116.681184, 32.642217 ], [ -116.681489, 32.641727 ], [ -116.682392, 32.641353 ], [ -116.684381, 32.641744 ], [ -116.686344, 32.641298 ], [ -116.687007, 32.639561 ], [ -116.687202, 32.638395 ], [ -116.686981, 32.6379 ], [ -116.686461, 32.63757 ], [ -116.683966, 32.637157 ], [ -116.683069, 32.636509 ], [ -116.682692, 32.635816 ], [ -116.68275, 32.634006 ], [ -116.683426, 32.633077 ], [ -116.684914, 32.632868 ], [ -116.686669, 32.633402 ], [ -116.687599, 32.633154 ], [ -116.687891, 32.632742 ], [ -116.687533, 32.631543 ], [ -116.685733, 32.629651 ], [ -116.685571, 32.628667 ], [ -116.686351, 32.625758 ], [ -116.68624, 32.624794 ], [ -116.68763, 32.624426 ], [ -116.688319, 32.623815 ], [ -116.689248, 32.623535 ], [ -116.69112, 32.621748 ], [ -116.69214, 32.619713 ], [ -116.694141, 32.618217 ], [ -116.696649, 32.617216 ], [ -116.697955, 32.61616 ], [ -116.698741, 32.615049 ], [ -116.699404, 32.613251 ], [ -116.699176, 32.611579 ], [ -116.698546, 32.610359 ], [ -116.698896, 32.609677 ], [ -116.697454, 32.609462 ], [ -116.695884, 32.608093 ], [ -116.695911, 32.607612 ], [ -116.695341, 32.607121 ], [ -116.696037, 32.605897 ], [ -116.69746, 32.60561 ], [ -116.698264, 32.606439 ], [ -116.699883, 32.60608 ], [ -116.701956, 32.606352 ], [ -116.706179, 32.608244 ], [ -116.707993, 32.608732 ], [ -116.709249, 32.608735 ], [ -116.71149, 32.608163 ], [ -116.713684, 32.606904 ], [ -116.714778, 32.604297 ], [ -116.715092, 32.602248 ], [ -116.71692, 32.600888 ], [ -116.717865, 32.599162 ], [ -116.720413, 32.597216 ], [ -116.721986, 32.593406 ], [ -116.722897, 32.592752 ], [ -116.730304, 32.589752 ], [ -116.736863, 32.588206 ], [ -116.740777, 32.587904 ], [ -116.744784, 32.588134 ], [ -116.746879, 32.587515 ], [ -116.747297, 32.586801 ], [ -116.747181, 32.586136 ], [ -116.744258, 32.583464 ], [ -116.743967, 32.58263 ], [ -116.744176, 32.579715 ], [ -116.744905, 32.577964 ], [ -116.746895, 32.577024 ], [ -116.756896, 32.573573 ], [ -116.757027, 32.573178 ], [ -116.763861, 32.568599 ], [ -116.765356, 32.567143 ], [ -116.76444, 32.567076 ], [ -116.76381, 32.566669 ], [ -116.762271, 32.566718 ], [ -116.759804, 32.565524 ], [ -116.757469, 32.565906 ], [ -116.757296, 32.565507 ] ] ] } }
]
}
